<?xml version="1.0" encoding="UTF-8"?>
<gpx version="1.1" creator="trail-water-explorer optimizer" xmlns="http://www.topografix.com/GPX/1/1">
  <metadata><name>Water waypoints (template data)</name></metadata>
  <wpt lat="36.9642986" lon="-107.4087326"><ele>2102.8</ele><name>4 Sample Stream</name><desc>Route mi 4.4 | water 95% low-end, flowing 82% typical | ~May 7 | 6,899 ft | next water 16.5 mi</desc><sym>Water</sym><type>Water</type></wpt>
  <wpt lat="37.1898884" lon="-107.3301565"><ele>2261.9</ele><name>~21 Sample Cach</name><desc>Route mi 20.9 | water 80% low-end, flowing 50% typical | ~May 13 | 7,421 ft | next water 5.4 mi</desc><sym>Water</sym><type>Water</type></wpt>
  <wpt lat="37.2660818" lon="-107.2888509"><ele>2250.9</ele><name>26 Sample Troug</name><desc>Route mi 26.3 | water 87% low-end, flowing 68% typical | ~May 15 | 7,385 ft | next water 3.6 mi | 0.30 mi off route</desc><sym>Water</sym><type>Water</type></wpt>
  <wpt lat="37.3084047" lon="-107.2653197"><ele>2546.0</ele><name>30 Sample Sprin</name><desc>Route mi 29.9 | water 89% low-end, flowing 69% typical | ~May 16 | 8,353 ft | next water 7.0 mi</desc><sym>Water</sym><type>Water</type></wpt>
  <wpt lat="37.4025871" lon="-107.2218615"><ele>2493.0</ele><name>37 Sample Creek</name><desc>Route mi 36.8 | water 93% low-end, flowing 82% typical | ~May 19 | 8,179 ft | next water 9.6 mi</desc><sym>Water</sym><type>Water</type></wpt>
  <wpt lat="37.5151817" lon="-107.1261674"><ele>2869.1</ele><name>46 Sample Strea</name><desc>Route mi 46.4 | water 91% low-end, flowing 74% typical | ~May 22 | 9,413 ft | next water 4.1 mi</desc><sym>Water</sym><type>Water</type></wpt>
  <wpt lat="37.5672976" lon="-107.0860955"><ele>2674.9</ele><name>51 Sample Creek</name><desc>Route mi 50.5 | water 88% low-end, flowing 63% typical | ~May 24 | 8,776 ft | next water 9.5 mi</desc><sym>Water</sym><type>Water</type></wpt>
  <wpt lat="37.6948000" lon="-107.0266000"><ele>2666.1</ele><name>60 Sample Tank</name><desc>Route mi 60.0 | water 89% low-end, flowing 70% typical | ~May 28 | 8,747 ft | next water 4.1 mi</desc><sym>Water</sym><type>Water</type></wpt>
  <wpt lat="37.7510980" lon="-106.9984737"><ele>2703.9</ele><name>64 Sample Strea</name><desc>Route mi 64.2 | water 94% low-end, flowing 83% typical | ~May 29 | 8,871 ft | next water 2.0 mi</desc><sym>Water</sym><type>Water</type></wpt>
  <wpt lat="37.7797058" lon="-106.9943409"><ele>2948.9</ele><name>?66 Sample Tank</name><desc>Route mi 66.2 | water 54% low-end, flowing 25% typical | ~May 30 | 9,675 ft | next water 5.6 mi</desc><sym>Water</sym><type>Water</type></wpt>
  <wpt lat="37.8580031" lon="-106.9812311"><ele>2649.0</ele><name>~72 Sample Cach</name><desc>Route mi 71.7 | water 71% low-end, flowing 43% typical | ~Jun 1 | 8,691 ft | next water 11.9 mi</desc><sym>Water</sym><type>Water</type></wpt>
  <wpt lat="38.0279956" lon="-107.0117239"><ele>2737.1</ele><name>?84 Sample Pond</name><desc>Route mi 83.7 | water 22% low-end, flowing 42% typical | ~Jun 5 | 8,980 ft | next water 7.3 mi | varies a lot year to year</desc><sym>Water</sym><type>Water</type></wpt>
  <wpt lat="38.1324061" lon="-107.0446636"><ele>2648.1</ele><name>~91 Sample Wind</name><desc>Route mi 91.0 | water 64% low-end, flowing 38% typical | ~Jun 8 | 8,688 ft | next water 7.2 mi</desc><sym>Water</sym><type>Water</type></wpt>
  <wpt lat="38.2257118" lon="-107.1035667"><ele>2442.1</ele><name>98 Sample River</name><desc>Route mi 98.2 | water 97% low-end, flowing 91% typical | ~Jun 11 | 8,012 ft | next water 2.6 mi</desc><sym>Water</sym><type>Water</type></wpt>
  <wpt lat="38.2582058" lon="-107.1229792"><ele>2446.9</ele><name>~101 Sample Win</name><desc>Route mi 100.8 | water 77% low-end, flowing 50% typical | ~Jun 12 | 8,028 ft | next water 10.7 mi</desc><sym>Water</sym><type>Water</type></wpt>
  <wpt lat="38.4038947" lon="-107.1877161"><ele>2179.9</ele><name>112 Sample Cree</name><desc>Route mi 111.5 | water 86% low-end, flowing 73% typical | ~Jun 16 | 7,152 ft | next water 3.2 mi</desc><sym>Water</sym><type>Water</type></wpt>
  <wpt lat="38.4464040" lon="-107.2127874"><ele>1446.0</ele><name>115 Sample Rive</name><desc>Route mi 114.8 | water 98% low-end, flowing 92% typical | ~Jun 17 | 4,744 ft | next water 4.0 mi</desc><sym>Water</sym><type>Water</type></wpt>
  <wpt lat="38.5012796" lon="-107.2460418"><ele>1168.9</ele><name>119 Sample Stre</name><desc>Route mi 118.8 | water 94% low-end, flowing 84% typical | ~Jun 19 | 3,835 ft | next water 17.0 mi</desc><sym>Water</sym><type>Water</type></wpt>
  <wpt lat="38.7314970" lon="-107.3351194"><ele>824.8</ele><name>~136 Sample Cac</name><desc>Route mi 135.8 | water 61% low-end, flowing 34% typical | ~Jun 25 | 2,706 ft | next water 0.5 mi</desc><sym>Water</sym><type>Water</type></wpt>
  <wpt lat="38.7387006" lon="-107.3362707"><ele>1107.9</ele><name>~136 Sample Win</name><desc>Route mi 136.2 | water 69% low-end, flowing 39% typical | ~Jun 25 | 3,635 ft | next water 8.3 mi</desc><sym>Water</sym><type>Water</type></wpt>
  <wpt lat="38.8567020" lon="-107.3263499"><ele>885.7</ele><name>145 Sample Lake</name><desc>Route mi 144.5 | water 88% low-end, flowing 73% typical | ~Jun 28 | 2,906 ft | next water 2.3 mi</desc><sym>Water</sym><type>Water</type></wpt>
  <wpt lat="38.8889986" lon="-107.3280283"><ele>1086.0</ele><name>~147 Sample Spr</name><desc>Route mi 146.8 | water 84% low-end, flowing 62% typical | ~Jun 29 | 3,563 ft | next water 4.7 mi</desc><sym>Water</sym><type>Water</type></wpt>
  <wpt lat="38.9603004" lon="-107.3347114"><ele>1011.0</ele><name>152 Sample Stre</name><desc>Route mi 151.5 | water 91% low-end, flowing 79% typical | ~Jul 1 | 3,317 ft | next water 9.3 mi | 0.30 mi off route</desc><sym>Water</sym><type>Water</type></wpt>
  <wpt lat="39.0825974" lon="-107.2845753"><ele>1215.8</ele><name>161 Sample Lake</name><desc>Route mi 160.8 | water 94% low-end, flowing 79% typical | ~Jul 4 | 3,989 ft | next water 2.8 mi</desc><sym>Water</sym><type>Water</type></wpt>
  <wpt lat="39.1207105" lon="-107.2715297"><ele>1404.8</ele><name>~164 Sample Win</name><desc>Route mi 163.5 | water 74% low-end, flowing 42% typical | ~Jul 5 | 4,609 ft | next water 7.9 mi</desc><sym>Water</sym><type>Water</type></wpt>
  <wpt lat="39.2280231" lon="-107.2186656"><ele>1556.0</ele><name>171 Sample Rive</name><desc>Route mi 171.4 | water 98% low-end, flowing 92% typical | ~Jul 8 | 5,105 ft | next water 7.1 mi</desc><sym>Water</sym><type>Water</type></wpt>
  <wpt lat="39.3190969" lon="-107.1550957"><ele>1500.8</ele><name>178 Sample Tank</name><desc>Route mi 178.5 | water 86% low-end, flowing 61% typical | ~Jul 11 | 4,924 ft | next water 4.1 mi</desc><sym>Water</sym><type>Water</type></wpt>
  <wpt lat="39.3631890" lon="-107.1073889"><ele>1655.1</ele><name>~183 Sample Win</name><desc>Route mi 182.6 | water 79% low-end, flowing 51% typical | ~Jul 13 | 5,430 ft | next water 2.2 mi</desc><sym>Water</sym><type>Water</type></wpt>
  <wpt lat="39.3866963" lon="-107.0791934"><ele>2137.0</ele><name>185 Sample Lake</name><desc>Route mi 184.8 | water 93% low-end, flowing 74% typical | ~Jul 13 | 7,011 ft | next water 9.3 mi</desc><sym>Water</sym><type>Water</type></wpt>
  <wpt lat="39.4966923" lon="-106.9846428"><ele>2282.0</ele><name>?194 Sample Pon</name><desc>Route mi 194.1 | water 60% low-end, flowing 36% typical | ~Jul 17 | 7,487 ft | next water 5.1 mi</desc><sym>Water</sym><type>Water</type></wpt>
  <wpt lat="39.5667000" lon="-106.9493000"><ele>2453.9</ele><name>199 Sample Lake</name><desc>Route mi 199.1 | water 96% low-end, flowing 85% typical | ~Jul 19 | 8,051 ft | next water 5.9 mi</desc><sym>Water</sym><type>Water</type></wpt>
  <wpt lat="39.6408965" lon="-106.9025796"><ele>2684.1</ele><name>?205 Sample Tan</name><desc>Route mi 205.0 | water 53% low-end, flowing 32% typical | ~Jul 21 | 8,806 ft | next water 12.3 mi</desc><sym>Water</sym><type>Water</type></wpt>
  <wpt lat="39.8205069" lon="-106.8853004"><ele>2723.1</ele><name>~217 Sample Spr</name><desc>Route mi 217.3 | water 68% low-end, flowing 45% typical | ~Jul 26 | 8,934 ft | next water 12.9 mi | 0.30 mi off route</desc><sym>Water</sym><type>Water</type></wpt>
  <wpt lat="39.9981929" lon="-106.9428435"><ele>2764.8</ele><name>230 Sample Stre</name><desc>Route mi 230.3 | water 94% low-end, flowing 78% typical | ~Jul 30 | 9,071 ft | next water 5.5 mi</desc><sym>Water</sym><type>Water</type></wpt>
  <wpt lat="40.0738947" lon="-106.9722145"><ele>2785.9</ele><name>236 Sample Spri</name><desc>Route mi 235.7 | water 86% low-end, flowing 60% typical | ~Aug 2 | 9,140 ft | next water 24.3 mi</desc><sym>Water</sym><type>Water</type></wpt>
  <wpt lat="40.3936085" lon="-107.1504508"><ele>2760.9</ele><name>260 Sample Cree</name><desc>Route mi 260.0 | water 95% low-end, flowing 80% typical | ~Aug 11 | 9,058 ft | next water 7.5 mi</desc><sym>Water</sym><type>Water</type></wpt>
  <wpt lat="40.4953963" lon="-107.1941358"><ele>2872.1</ele><name>?268 Sample Win</name><desc>Route mi 267.5 | water 33% low-end, flowing 11% typical | ~Aug 13 | 9,423 ft | next water 9.0 mi</desc><sym>Water</sym><type>Water</type></wpt>
  <wpt lat="40.6279990" lon="-107.1998820"><ele>2688.0</ele><name>?277 Sample Pon</name><desc>Route mi 276.5 | water 40% low-end, flowing 13% typical | ~Aug 17 | 8,819 ft | next water 5.8 mi</desc><sym>Water</sym><type>Water</type></wpt>
  <wpt lat="40.7105980" lon="-107.1996759"><ele>2408.8</ele><name>282 Sample Rive</name><desc>Route mi 282.3 | water 97% low-end, flowing 90% typical | ~Aug 19 | 7,903 ft | next water 7.7 mi</desc><sym>Water</sym><type>Water</type></wpt>
  <wpt lat="40.8226046" lon="-107.1854382"><ele>2208.9</ele><name>290 Sample Rive</name><desc>Route mi 289.9 | water 97% low-end, flowing 89% typical | ~Aug 22 | 7,247 ft | next water 8.5 mi</desc><sym>Water</sym><type>Water</type></wpt>
  <wpt lat="40.9421993" lon="-107.1711057"><ele>2009.9</ele><name>?298 Sample Tan</name><desc>Route mi 298.4 | water 35% low-end, flowing 12% typical | ~Aug 25 | 6,594 ft | next water 0.2 mi</desc><sym>Water</sym><type>Water</type></wpt>
  <wpt lat="40.9421993" lon="-107.1711057"><ele>2093.1</ele><name>?299 Sample Tro</name><desc>Route mi 298.6 | water 41% low-end, flowing 13% typical | ~Aug 25 | 6,867 ft | next water 9.1 mi</desc><sym>Water</sym><type>Water</type></wpt>
  <wpt lat="41.0708032" lon="-107.1318100"><ele>2019.9</ele><name>~308 Sample Cre</name><desc>Route mi 307.7 | water 64% low-end, flowing 30% typical | ~Aug 29 | 6,627 ft | next water 1.6 mi</desc><sym>Water</sym><type>Water</type></wpt>
  <wpt lat="41.0914869" lon="-107.1190716"><ele>1606.9</ele><name>?309 Sample Str</name><desc>Route mi 309.3 | water 35% low-end, flowing 45% typical | ~Aug 29 | 5,272 ft | next water 3.6 mi | varies a lot year to year</desc><sym>Water</sym><type>Water</type></wpt>
  <wpt lat="41.1374154" lon="-107.0850336"><ele>1709.9</ele><name>313 Sample Rive</name><desc>Route mi 312.9 | water 98% low-end, flowing 90% typical | ~Aug 30 | 5,610 ft | next water 9.6 mi</desc><sym>Water</sym><type>Water</type></wpt>
  <wpt lat="41.2571830" lon="-106.9904633"><ele>1481.9</ele><name>~323 Sample Tro</name><desc>Route mi 322.5 | water 66% low-end, flowing 33% typical | ~Sep 3 | 4,862 ft | next water 12.0 mi</desc><sym>Water</sym><type>Water</type></wpt>
  <wpt lat="41.3999927" lon="-106.8650735"><ele>1422.8</ele><name>?334 Sample Tro</name><desc>Route mi 334.5 | water 43% low-end, flowing 14% typical | ~Sep 8 | 4,668 ft | next water 8.2 mi</desc><sym>Water</sym><type>Water</type></wpt>
  <wpt lat="41.5102144" lon="-106.8068446"><ele>1371.9</ele><name>343 Sample Spri</name><desc>Route mi 342.7 | water 86% low-end, flowing 56% typical | ~Sep 11 | 4,501 ft | next water 5.1 mi</desc><sym>Water</sym><type>Water</type></wpt>
  <wpt lat="41.5817011" lon="-106.7976517"><ele>988.8</ele><name>348 Sample Rive</name><desc>Route mi 347.8 | water 95% low-end, flowing 80% typical | ~Sep 13 | 3,244 ft | next water 3.3 mi</desc><sym>Water</sym><type>Water</type></wpt>
  <wpt lat="41.6284000" lon="-106.7955800"><ele>1118.9</ele><name>351 Sample Lake</name><desc>Route mi 351.1 | water 93% low-end, flowing 75% typical | ~Sep 14 | 3,671 ft | next water 5.4 mi</desc><sym>Water</sym><type>Water</type></wpt>
  <wpt lat="41.7072984" lon="-106.8034165"><ele>1331.1</ele><name>?356 Sample Spr</name><desc>Route mi 356.4 | water 28% low-end, flowing 51% typical | ~Sep 16 | 4,367 ft | next water 1.0 mi | varies a lot year to year</desc><sym>Water</sym><type>Water</type></wpt>
  <wpt lat="41.7216023" lon="-106.8043486"><ele>1189.9</ele><name>~357 Sample Str</name><desc>Route mi 357.4 | water 68% low-end, flowing 32% typical | ~Sep 16 | 3,904 ft | next water 4.2 mi</desc><sym>Water</sym><type>Water</type></wpt>
  <wpt lat="41.7828001" lon="-106.8042804"><ele>1652.0</ele><name>~362 Sample Tan</name><desc>Route mi 361.6 | water 68% low-end, flowing 31% typical | ~Sep 18 | 5,420 ft | next water 3.9 mi</desc><sym>Water</sym><type>Water</type></wpt>
  <wpt lat="41.8400049" lon="-106.8120764"><ele>1798.9</ele><name>?366 Sample Tro</name><desc>Route mi 365.6 | water 30% low-end, flowing 8% typical | ~Sep 19 | 5,902 ft | next water 1.8 mi</desc><sym>Water</sym><type>Water</type></wpt>
  <wpt lat="41.8653460" lon="-106.8201305"><ele>1581.0</ele><name>367 Sample Lake</name><desc>Route mi 367.4 | water 88% low-end, flowing 60% typical | ~Sep 20 | 5,187 ft | next water 5.5 mi</desc><sym>Water</sym><type>Water</type></wpt>
  <trk><name>Water waypoints (template data)</name><trkseg>
    <trkpt lat="36.900000" lon="-107.400000"/>
    <trkpt lat="36.903590" lon="-107.400410"/>
    <trkpt lat="36.907160" lon="-107.400970"/>
    <trkpt lat="36.910670" lon="-107.401940"/>
    <trkpt lat="36.914240" lon="-107.402500"/>
    <trkpt lat="36.917840" lon="-107.402630"/>
    <trkpt lat="36.921440" lon="-107.402850"/>
    <trkpt lat="36.925040" lon="-107.402690"/>
    <trkpt lat="36.928640" lon="-107.402820"/>
    <trkpt lat="36.932230" lon="-107.402920"/>
    <trkpt lat="36.935810" lon="-107.403410"/>
    <trkpt lat="36.939370" lon="-107.404060"/>
    <trkpt lat="36.942900" lon="-107.404980"/>
    <trkpt lat="36.946400" lon="-107.406030"/>
    <trkpt lat="36.949960" lon="-107.406710"/>
    <trkpt lat="36.953550" lon="-107.407050"/>
    <trkpt lat="36.957120" lon="-107.407590"/>
    <trkpt lat="36.960690" lon="-107.408210"/>
    <trkpt lat="36.964260" lon="-107.408730"/>
    <trkpt lat="36.967860" lon="-107.408970"/>
    <trkpt lat="36.971460" lon="-107.409040"/>
    <trkpt lat="36.975060" lon="-107.408920"/>
    <trkpt lat="36.978650" lon="-107.409170"/>
    <trkpt lat="36.982250" lon="-107.409200"/>
    <trkpt lat="36.985850" lon="-107.409060"/>
    <trkpt lat="36.989450" lon="-107.409010"/>
    <trkpt lat="36.993030" lon="-107.408500"/>
    <trkpt lat="36.996560" lon="-107.407660"/>
    <trkpt lat="37.000120" lon="-107.406970"/>
    <trkpt lat="37.003700" lon="-107.406430"/>
    <trkpt lat="37.007220" lon="-107.405500"/>
    <trkpt lat="37.010710" lon="-107.404380"/>
    <trkpt lat="37.014200" lon="-107.403320"/>
    <trkpt lat="37.017770" lon="-107.402670"/>
    <trkpt lat="37.021270" lon="-107.401620"/>
    <trkpt lat="37.024730" lon="-107.400400"/>
    <trkpt lat="37.028150" lon="-107.398980"/>
    <trkpt lat="37.031500" lon="-107.397330"/>
    <trkpt lat="37.034880" lon="-107.395780"/>
    <trkpt lat="37.038190" lon="-107.393990"/>
    <trkpt lat="37.041490" lon="-107.392190"/>
    <trkpt lat="37.044650" lon="-107.390050"/>
    <trkpt lat="37.047770" lon="-107.387790"/>
    <trkpt lat="37.050920" lon="-107.385610"/>
    <trkpt lat="37.053990" lon="-107.383260"/>
    <trkpt lat="37.056950" lon="-107.380690"/>
    <trkpt lat="37.059770" lon="-107.377880"/>
    <trkpt lat="37.062560" lon="-107.375030"/>
    <trkpt lat="37.065570" lon="-107.372550"/>
    <trkpt lat="37.068720" lon="-107.370370"/>
    <trkpt lat="37.072010" lon="-107.368550"/>
    <trkpt lat="37.075430" lon="-107.367110"/>
    <trkpt lat="37.078790" lon="-107.365520"/>
    <trkpt lat="37.082200" lon="-107.364040"/>
    <trkpt lat="37.085540" lon="-107.362370"/>
    <trkpt lat="37.088770" lon="-107.360380"/>
    <trkpt lat="37.092020" lon="-107.358430"/>
    <trkpt lat="37.095390" lon="-107.356860"/>
    <trkpt lat="37.098800" lon="-107.355390"/>
    <trkpt lat="37.102290" lon="-107.354290"/>
    <trkpt lat="37.105700" lon="-107.352860"/>
    <trkpt lat="37.109140" lon="-107.351530"/>
    <trkpt lat="37.112620" lon="-107.350340"/>
    <trkpt lat="37.116080" lon="-107.349120"/>
    <trkpt lat="37.119610" lon="-107.348240"/>
    <trkpt lat="37.123140" lon="-107.347350"/>
    <trkpt lat="37.126710" lon="-107.346720"/>
    <trkpt lat="37.130270" lon="-107.346040"/>
    <trkpt lat="37.133770" lon="-107.345000"/>
    <trkpt lat="37.137230" lon="-107.343740"/>
    <trkpt lat="37.140680" lon="-107.342470"/>
    <trkpt lat="37.144080" lon="-107.340980"/>
    <trkpt lat="37.147540" lon="-107.339750"/>
    <trkpt lat="37.151070" lon="-107.338840"/>
    <trkpt lat="37.154590" lon="-107.337900"/>
    <trkpt lat="37.158130" lon="-107.337090"/>
    <trkpt lat="37.161710" lon="-107.336580"/>
    <trkpt lat="37.165300" lon="-107.336180"/>
    <trkpt lat="37.168890" lon="-107.336100"/>
    <trkpt lat="37.172480" lon="-107.335690"/>
    <trkpt lat="37.176050" lon="-107.335140"/>
    <trkpt lat="37.179580" lon="-107.334200"/>
    <trkpt lat="37.183020" lon="-107.332910"/>
    <trkpt lat="37.186420" lon="-107.331420"/>
    <trkpt lat="37.189880" lon="-107.330160"/>
    <trkpt lat="37.193300" lon="-107.328740"/>
    <trkpt lat="37.196740" lon="-107.327410"/>
    <trkpt lat="37.200250" lon="-107.326410"/>
    <trkpt lat="37.203740" lon="-107.325290"/>
    <trkpt lat="37.207180" lon="-107.323950"/>
    <trkpt lat="37.210530" lon="-107.322300"/>
    <trkpt lat="37.213800" lon="-107.320430"/>
    <trkpt lat="37.217140" lon="-107.318720"/>
    <trkpt lat="37.220460" lon="-107.316990"/>
    <trkpt lat="37.223690" lon="-107.315000"/>
    <trkpt lat="37.226850" lon="-107.312820"/>
    <trkpt lat="37.230160" lon="-107.311050"/>
    <trkpt lat="37.233380" lon="-107.309020"/>
    <trkpt lat="37.236650" lon="-107.307130"/>
    <trkpt lat="37.239950" lon="-107.305310"/>
    <trkpt lat="37.243270" lon="-107.303580"/>
    <trkpt lat="37.246440" lon="-107.301440"/>
    <trkpt lat="37.249530" lon="-107.299110"/>
    <trkpt lat="37.252780" lon="-107.297170"/>
    <trkpt lat="37.256060" lon="-107.295300"/>
    <trkpt lat="37.259370" lon="-107.293520"/>
    <trkpt lat="37.262570" lon="-107.291460"/>
    <trkpt lat="37.265650" lon="-107.289110"/>
    <trkpt lat="37.268900" lon="-107.287160"/>
    <trkpt lat="37.272210" lon="-107.285390"/>
    <trkpt lat="37.275630" lon="-107.283980"/>
    <trkpt lat="37.278940" lon="-107.282210"/>
    <trkpt lat="37.282100" lon="-107.280030"/>
    <trkpt lat="37.285320" lon="-107.278000"/>
    <trkpt lat="37.288510" lon="-107.275910"/>
    <trkpt lat="37.291740" lon="-107.273920"/>
    <trkpt lat="37.294900" lon="-107.271750"/>
    <trkpt lat="37.298170" lon="-107.269870"/>
    <trkpt lat="37.301570" lon="-107.268360"/>
    <trkpt lat="37.305000" lon="-107.267000"/>
    <trkpt lat="37.308350" lon="-107.265340"/>
    <trkpt lat="37.311800" lon="-107.264060"/>
    <trkpt lat="37.315320" lon="-107.263100"/>
    <trkpt lat="37.318820" lon="-107.262040"/>
    <trkpt lat="37.322330" lon="-107.261040"/>
    <trkpt lat="37.325860" lon="-107.260140"/>
    <trkpt lat="37.329330" lon="-107.258950"/>
    <trkpt lat="37.332870" lon="-107.258130"/>
    <trkpt lat="37.336320" lon="-107.256830"/>
    <trkpt lat="37.339820" lon="-107.255740"/>
    <trkpt lat="37.343210" lon="-107.254210"/>
    <trkpt lat="37.346520" lon="-107.252450"/>
    <trkpt lat="37.349780" lon="-107.250520"/>
    <trkpt lat="37.352930" lon="-107.248330"/>
    <trkpt lat="37.356230" lon="-107.246510"/>
    <trkpt lat="37.359480" lon="-107.244560"/>
    <trkpt lat="37.362750" lon="-107.242680"/>
    <trkpt lat="37.366110" lon="-107.241060"/>
    <trkpt lat="37.369530" lon="-107.239630"/>
    <trkpt lat="37.372970" lon="-107.238290"/>
    <trkpt lat="37.376320" lon="-107.236650"/>
    <trkpt lat="37.379580" lon="-107.234720"/>
    <trkpt lat="37.382710" lon="-107.232480"/>
    <trkpt lat="37.385980" lon="-107.230570"/>
    <trkpt lat="37.389290" lon="-107.228820"/>
    <trkpt lat="37.392590" lon="-107.226980"/>
    <trkpt lat="37.395880" lon="-107.225140"/>
    <trkpt lat="37.399260" lon="-107.223600"/>
    <trkpt lat="37.402590" lon="-107.221860"/>
    <trkpt lat="37.405820" lon="-107.219870"/>
    <trkpt lat="37.409040" lon="-107.217840"/>
    <trkpt lat="37.412300" lon="-107.215920"/>
    <trkpt lat="37.415390" lon="-107.213600"/>
    <trkpt lat="37.418450" lon="-107.211220"/>
    <trkpt lat="37.421630" lon="-107.209080"/>
    <trkpt lat="37.424930" lon="-107.207260"/>
    <trkpt lat="37.428190" lon="-107.205350"/>
    <trkpt lat="37.431360" lon="-107.203210"/>
    <trkpt lat="37.434660" lon="-107.201390"/>
    <trkpt lat="37.437900" lon="-107.199400"/>
    <trkpt lat="37.441150" lon="-107.197450"/>
    <trkpt lat="37.444270" lon="-107.195190"/>
    <trkpt lat="37.447250" lon="-107.192650"/>
    <trkpt lat="37.450420" lon="-107.190510"/>
    <trkpt lat="37.453480" lon="-107.188110"/>
    <trkpt lat="37.456570" lon="-107.185790"/>
    <trkpt lat="37.459530" lon="-107.183210"/>
    <trkpt lat="37.462370" lon="-107.180430"/>
    <trkpt lat="37.465080" lon="-107.177430"/>
    <trkpt lat="37.468000" lon="-107.174780"/>
    <trkpt lat="37.470770" lon="-107.171890"/>
    <trkpt lat="37.473580" lon="-107.169050"/>
    <trkpt lat="37.476190" lon="-107.165930"/>
    <trkpt lat="37.478640" lon="-107.162600"/>
    <trkpt lat="37.481220" lon="-107.159440"/>
    <trkpt lat="37.483780" lon="-107.156240"/>
    <trkpt lat="37.486160" lon="-107.152840"/>
    <trkpt lat="37.488780" lon="-107.149730"/>
    <trkpt lat="37.491630" lon="-107.146960"/>
    <trkpt lat="37.494400" lon="-107.144070"/>
    <trkpt lat="37.497240" lon="-107.141270"/>
    <trkpt lat="37.500220" lon="-107.138730"/>
    <trkpt lat="37.503280" lon="-107.136350"/>
    <trkpt lat="37.506350" lon="-107.133960"/>
    <trkpt lat="37.509370" lon="-107.131510"/>
    <trkpt lat="37.512240" lon="-107.128760"/>
    <trkpt lat="37.515190" lon="-107.126160"/>
    <trkpt lat="37.518100" lon="-107.123490"/>
    <trkpt lat="37.520990" lon="-107.120780"/>
    <trkpt lat="37.524010" lon="-107.118300"/>
    <trkpt lat="37.527090" lon="-107.115960"/>
    <trkpt lat="37.530060" lon="-107.113400"/>
    <trkpt lat="37.533150" lon="-107.111060"/>
    <trkpt lat="37.536160" lon="-107.108570"/>
    <trkpt lat="37.539350" lon="-107.106480"/>
    <trkpt lat="37.542590" lon="-107.104500"/>
    <trkpt lat="37.545790" lon="-107.102420"/>
    <trkpt lat="37.549090" lon="-107.100600"/>
    <trkpt lat="37.552260" lon="-107.098430"/>
    <trkpt lat="37.555250" lon="-107.095910"/>
    <trkpt lat="37.558320" lon="-107.093540"/>
    <trkpt lat="37.561410" lon="-107.091210"/>
    <trkpt lat="37.564340" lon="-107.088570"/>
    <trkpt lat="37.567340" lon="-107.086060"/>
    <trkpt lat="37.570330" lon="-107.083540"/>
    <trkpt lat="37.573320" lon="-107.081010"/>
    <trkpt lat="37.576350" lon="-107.078540"/>
    <trkpt lat="37.579480" lon="-107.076310"/>
    <trkpt lat="37.582780" lon="-107.074500"/>
    <trkpt lat="37.586010" lon="-107.072490"/>
    <trkpt lat="37.589290" lon="-107.070620"/>
    <trkpt lat="37.592670" lon="-107.069050"/>
    <trkpt lat="37.596090" lon="-107.067640"/>
    <trkpt lat="37.599540" lon="-107.066340"/>
    <trkpt lat="37.602910" lon="-107.064730"/>
    <trkpt lat="37.606300" lon="-107.063220"/>
    <trkpt lat="37.609680" lon="-107.061650"/>
    <trkpt lat="37.613110" lon="-107.060270"/>
    <trkpt lat="37.616470" lon="-107.058620"/>
    <trkpt lat="37.619750" lon="-107.056740"/>
    <trkpt lat="37.623120" lon="-107.055150"/>
    <trkpt lat="37.626550" lon="-107.053780"/>
    <trkpt lat="37.630040" lon="-107.052650"/>
    <trkpt lat="37.633490" lon="-107.051350"/>
    <trkpt lat="37.637020" lon="-107.050440"/>
    <trkpt lat="37.640470" lon="-107.049150"/>
    <trkpt lat="37.643980" lon="-107.048130"/>
    <trkpt lat="37.647540" lon="-107.047460"/>
    <trkpt lat="37.651100" lon="-107.046840"/>
    <trkpt lat="37.654630" lon="-107.045950"/>
    <trkpt lat="37.658140" lon="-107.044950"/>
    <trkpt lat="37.661680" lon="-107.044080"/>
    <trkpt lat="37.665180" lon="-107.043020"/>
    <trkpt lat="37.668590" lon="-107.041580"/>
    <trkpt lat="37.671940" lon="-107.039910"/>
    <trkpt lat="37.675170" lon="-107.037880"/>
    <trkpt lat="37.678360" lon="-107.035780"/>
    <trkpt lat="37.681610" lon="-107.033840"/>
    <trkpt lat="37.684890" lon="-107.031950"/>
    <trkpt lat="37.688300" lon="-107.030480"/>
    <trkpt lat="37.691610" lon="-107.028720"/>
    <trkpt lat="37.694800" lon="-107.026600"/>
    <trkpt lat="37.697840" lon="-107.024160"/>
    <trkpt lat="37.701030" lon="-107.022060"/>
    <trkpt lat="37.704180" lon="-107.019840"/>
    <trkpt lat="37.707230" lon="-107.017430"/>
    <trkpt lat="37.710250" lon="-107.014960"/>
    <trkpt lat="37.713310" lon="-107.012570"/>
    <trkpt lat="37.716570" lon="-107.010630"/>
    <trkpt lat="37.719900" lon="-107.008910"/>
    <trkpt lat="37.723300" lon="-107.007390"/>
    <trkpt lat="37.726690" lon="-107.005870"/>
    <trkpt lat="37.730120" lon="-107.004480"/>
    <trkpt lat="37.733610" lon="-107.003350"/>
    <trkpt lat="37.737090" lon="-107.002190"/>
    <trkpt lat="37.740510" lon="-107.000770"/>
    <trkpt lat="37.744000" lon="-106.999670"/>
    <trkpt lat="37.747550" lon="-106.998890"/>
    <trkpt lat="37.751130" lon="-106.998470"/>
    <trkpt lat="37.754700" lon="-106.997840"/>
    <trkpt lat="37.758280" lon="-106.997390"/>
    <trkpt lat="37.761870" lon="-106.997070"/>
    <trkpt lat="37.765470" lon="-106.996900"/>
    <trkpt lat="37.769060" lon="-106.996670"/>
    <trkpt lat="37.772620" lon="-106.995990"/>
    <trkpt lat="37.776160" lon="-106.995140"/>
    <trkpt lat="37.779710" lon="-106.994340"/>
    <trkpt lat="37.783230" lon="-106.993400"/>
    <trkpt lat="37.786760" lon="-106.992550"/>
    <trkpt lat="37.790350" lon="-106.992080"/>
    <trkpt lat="37.793890" lon="-106.991300"/>
    <trkpt lat="37.797380" lon="-106.990180"/>
    <trkpt lat="37.800910" lon="-106.989270"/>
    <trkpt lat="37.804460" lon="-106.988490"/>
    <trkpt lat="37.807990" lon="-106.987640"/>
    <trkpt lat="37.811510" lon="-106.986690"/>
    <trkpt lat="37.815100" lon="-106.986240"/>
    <trkpt lat="37.818670" lon="-106.985640"/>
    <trkpt lat="37.822190" lon="-106.984700"/>
    <trkpt lat="37.825760" lon="-106.984150"/>
    <trkpt lat="37.829360" lon="-106.983950"/>
    <trkpt lat="37.832960" lon="-106.984080"/>
    <trkpt lat="37.836550" lon="-106.983770"/>
    <trkpt lat="37.840150" lon="-106.983870"/>
    <trkpt lat="37.843740" lon="-106.983660"/>
    <trkpt lat="37.847320" lon="-106.983170"/>
    <trkpt lat="37.850890" lon="-106.982550"/>
    <trkpt lat="37.854440" lon="-106.981790"/>
    <trkpt lat="37.858010" lon="-106.981230"/>
    <trkpt lat="37.861580" lon="-106.980610"/>
    <trkpt lat="37.865170" lon="-106.980380"/>
    <trkpt lat="37.868770" lon="-106.980630"/>
    <trkpt lat="37.872370" lon="-106.980670"/>
    <trkpt lat="37.875970" lon="-106.980800"/>
    <trkpt lat="37.879560" lon="-106.980980"/>
    <trkpt lat="37.883160" lon="-106.981070"/>
    <trkpt lat="37.886760" lon="-106.980980"/>
    <trkpt lat="37.890360" lon="-106.980770"/>
    <trkpt lat="37.893950" lon="-106.980450"/>
    <trkpt lat="37.897550" lon="-106.980450"/>
    <trkpt lat="37.901150" lon="-106.980540"/>
    <trkpt lat="37.904750" lon="-106.980590"/>
    <trkpt lat="37.908330" lon="-106.981010"/>
    <trkpt lat="37.911870" lon="-106.981880"/>
    <trkpt lat="37.915390" lon="-106.982810"/>
    <trkpt lat="37.918960" lon="-106.983420"/>
    <trkpt lat="37.922470" lon="-106.984450"/>
    <trkpt lat="37.926000" lon="-106.985350"/>
    <trkpt lat="37.929570" lon="-106.985910"/>
    <trkpt lat="37.933090" lon="-106.986870"/>
    <trkpt lat="37.936620" lon="-106.987790"/>
    <trkpt lat="37.940130" lon="-106.988750"/>
    <trkpt lat="37.943630" lon="-106.989830"/>
    <trkpt lat="37.947130" lon="-106.990900"/>
    <trkpt lat="37.950670" lon="-106.991780"/>
    <trkpt lat="37.954190" lon="-106.992720"/>
    <trkpt lat="37.957700" lon="-106.993740"/>
    <trkpt lat="37.961130" lon="-106.995110"/>
    <trkpt lat="37.964450" lon="-106.996860"/>
    <trkpt lat="37.967910" lon="-106.998150"/>
    <trkpt lat="37.971440" lon="-106.999010"/>
    <trkpt lat="37.975030" lon="-106.999420"/>
    <trkpt lat="37.978590" lon="-107.000120"/>
    <trkpt lat="37.982110" lon="-107.001060"/>
    <trkpt lat="37.985580" lon="-107.002260"/>
    <trkpt lat="37.989050" lon="-107.003470"/>
    <trkpt lat="37.992580" lon="-107.004410"/>
    <trkpt lat="37.996150" lon="-107.004970"/>
    <trkpt lat="37.999740" lon="-107.005360"/>
    <trkpt lat="38.003290" lon="-107.006090"/>
    <trkpt lat="38.006830" lon="-107.006960"/>
    <trkpt lat="38.010390" lon="-107.007580"/>
    <trkpt lat="38.013980" lon="-107.007890"/>
    <trkpt lat="38.017550" lon="-107.008540"/>
    <trkpt lat="38.021060" lon="-107.009560"/>
    <trkpt lat="38.024540" lon="-107.010700"/>
    <trkpt lat="38.028050" lon="-107.011740"/>
    <trkpt lat="38.031610" lon="-107.012400"/>
    <trkpt lat="38.035200" lon="-107.012680"/>
    <trkpt lat="38.038780" lon="-107.013240"/>
    <trkpt lat="38.042350" lon="-107.013790"/>
    <trkpt lat="38.045910" lon="-107.014430"/>
    <trkpt lat="38.049500" lon="-107.014780"/>
    <trkpt lat="38.053050" lon="-107.015600"/>
    <trkpt lat="38.056530" lon="-107.016740"/>
    <trkpt lat="38.060050" lon="-107.017730"/>
    <trkpt lat="38.063560" lon="-107.018730"/>
    <trkpt lat="38.067080" lon="-107.019660"/>
    <trkpt lat="38.070540" lon="-107.020940"/>
    <trkpt lat="38.074050" lon="-107.021950"/>
    <trkpt lat="38.077580" lon="-107.022820"/>
    <trkpt lat="38.081060" lon="-107.024020"/>
    <trkpt lat="38.084590" lon="-107.024930"/>
    <trkpt lat="38.088050" lon="-107.026200"/>
    <trkpt lat="38.091470" lon="-107.027610"/>
    <trkpt lat="38.094790" lon="-107.029370"/>
    <trkpt lat="38.098240" lon="-107.030700"/>
    <trkpt lat="38.101640" lon="-107.032190"/>
    <trkpt lat="38.105070" lon="-107.033590"/>
    <trkpt lat="38.108420" lon="-107.035260"/>
    <trkpt lat="38.111780" lon="-107.036910"/>
    <trkpt lat="38.115070" lon="-107.038770"/>
    <trkpt lat="38.118440" lon="-107.040360"/>
    <trkpt lat="38.121900" lon="-107.041610"/>
    <trkpt lat="38.125400" lon="-107.042710"/>
    <trkpt lat="38.128910" lon="-107.043730"/>
    <trkpt lat="38.132430" lon="-107.044670"/>
    <trkpt lat="38.135900" lon="-107.045900"/>
    <trkpt lat="38.139280" lon="-107.047480"/>
    <trkpt lat="38.142620" lon="-107.049180"/>
    <trkpt lat="38.145860" lon="-107.051180"/>
    <trkpt lat="38.149140" lon="-107.053070"/>
    <trkpt lat="38.152380" lon="-107.055050"/>
    <trkpt lat="38.155640" lon="-107.057010"/>
    <trkpt lat="38.158920" lon="-107.058900"/>
    <trkpt lat="38.162320" lon="-107.060380"/>
    <trkpt lat="38.165610" lon="-107.062260"/>
    <trkpt lat="38.168760" lon="-107.064470"/>
    <trkpt lat="38.171930" lon="-107.066640"/>
    <trkpt lat="38.175100" lon="-107.068800"/>
    <trkpt lat="38.178290" lon="-107.070930"/>
    <trkpt lat="38.181400" lon="-107.073230"/>
    <trkpt lat="38.184380" lon="-107.075800"/>
    <trkpt lat="38.187410" lon="-107.078290"/>
    <trkpt lat="38.190450" lon="-107.080740"/>
    <trkpt lat="38.193540" lon="-107.083080"/>
    <trkpt lat="38.196790" lon="-107.085060"/>
    <trkpt lat="38.200140" lon="-107.086730"/>
    <trkpt lat="38.203350" lon="-107.088800"/>
    <trkpt lat="38.206520" lon="-107.090980"/>
    <trkpt lat="38.209710" lon="-107.093110"/>
    <trkpt lat="38.212800" lon="-107.095450"/>
    <trkpt lat="38.215900" lon="-107.097790"/>
    <trkpt lat="38.219120" lon="-107.099820"/>
    <trkpt lat="38.222400" lon="-107.101710"/>
    <trkpt lat="38.225700" lon="-107.103560"/>
    <trkpt lat="38.228990" lon="-107.105420"/>
    <trkpt lat="38.232260" lon="-107.107330"/>
    <trkpt lat="38.235440" lon="-107.109480"/>
    <trkpt lat="38.238520" lon="-107.111860"/>
    <trkpt lat="38.241720" lon="-107.113950"/>
    <trkpt lat="38.244910" lon="-107.116080"/>
    <trkpt lat="38.248240" lon="-107.117820"/>
    <trkpt lat="38.251480" lon="-107.119830"/>
    <trkpt lat="38.254840" lon="-107.121470"/>
    <trkpt lat="38.258230" lon="-107.122990"/>
    <trkpt lat="38.261650" lon="-107.124430"/>
    <trkpt lat="38.264940" lon="-107.126300"/>
    <trkpt lat="38.268310" lon="-107.127910"/>
    <trkpt lat="38.271720" lon="-107.129380"/>
    <trkpt lat="38.275070" lon="-107.131060"/>
    <trkpt lat="38.278370" lon="-107.132890"/>
    <trkpt lat="38.281650" lon="-107.134780"/>
    <trkpt lat="38.284830" lon="-107.136920"/>
    <trkpt lat="38.288100" lon="-107.138850"/>
    <trkpt lat="38.291470" lon="-107.140470"/>
    <trkpt lat="38.294840" lon="-107.142070"/>
    <trkpt lat="38.298310" lon="-107.143300"/>
    <trkpt lat="38.301710" lon="-107.144810"/>
    <trkpt lat="38.305070" lon="-107.146450"/>
    <trkpt lat="38.308420" lon="-107.148140"/>
    <trkpt lat="38.311870" lon="-107.149450"/>
    <trkpt lat="38.315280" lon="-107.150910"/>
    <trkpt lat="38.318670" lon="-107.152460"/>
    <trkpt lat="38.322040" lon="-107.154060"/>
    <trkpt lat="38.325500" lon="-107.155360"/>
    <trkpt lat="38.329010" lon="-107.156370"/>
    <trkpt lat="38.332550" lon="-107.157170"/>
    <trkpt lat="38.336040" lon="-107.158330"/>
    <trkpt lat="38.339560" lon="-107.159280"/>
    <trkpt lat="38.343070" lon="-107.160280"/>
    <trkpt lat="38.346580" lon="-107.161300"/>
    <trkpt lat="38.350130" lon="-107.162090"/>
    <trkpt lat="38.353600" lon="-107.163320"/>
    <trkpt lat="38.357050" lon="-107.164600"/>
    <trkpt lat="38.360570" lon="-107.165560"/>
    <trkpt lat="38.364040" lon="-107.166810"/>
    <trkpt lat="38.367450" lon="-107.168260"/>
    <trkpt lat="38.370870" lon="-107.169720"/>
    <trkpt lat="38.374280" lon="-107.171200"/>
    <trkpt lat="38.377650" lon="-107.172790"/>
    <trkpt lat="38.380980" lon="-107.174530"/>
    <trkpt lat="38.384310" lon="-107.176280"/>
    <trkpt lat="38.387530" lon="-107.178350"/>
    <trkpt lat="38.390760" lon="-107.180370"/>
    <trkpt lat="38.394090" lon="-107.182100"/>
    <trkpt lat="38.397430" lon="-107.183830"/>
    <trkpt lat="38.400610" lon="-107.185980"/>
    <trkpt lat="38.403940" lon="-107.187740"/>
    <trkpt lat="38.407280" lon="-107.189450"/>
    <trkpt lat="38.410580" lon="-107.191290"/>
    <trkpt lat="38.413750" lon="-107.193460"/>
    <trkpt lat="38.417000" lon="-107.195440"/>
    <trkpt lat="38.420320" lon="-107.197210"/>
    <trkpt lat="38.423660" lon="-107.198910"/>
    <trkpt lat="38.426860" lon="-107.201030"/>
    <trkpt lat="38.430080" lon="-107.203080"/>
    <trkpt lat="38.433200" lon="-107.205370"/>
    <trkpt lat="38.436480" lon="-107.207260"/>
    <trkpt lat="38.439750" lon="-107.209200"/>
    <trkpt lat="38.443130" lon="-107.210770"/>
    <trkpt lat="38.446370" lon="-107.212770"/>
    <trkpt lat="38.449710" lon="-107.214480"/>
    <trkpt lat="38.453170" lon="-107.215770"/>
    <trkpt lat="38.456520" lon="-107.217440"/>
    <trkpt lat="38.459890" lon="-107.219060"/>
    <trkpt lat="38.463340" lon="-107.220400"/>
    <trkpt lat="38.466800" lon="-107.221670"/>
    <trkpt lat="38.470210" lon="-107.223130"/>
    <trkpt lat="38.473510" lon="-107.224970"/>
    <trkpt lat="38.476670" lon="-107.227170"/>
    <trkpt lat="38.479940" lon="-107.229090"/>
    <trkpt lat="38.483210" lon="-107.231010"/>
    <trkpt lat="38.486400" lon="-107.233150"/>
    <trkpt lat="38.489430" lon="-107.235640"/>
    <trkpt lat="38.492370" lon="-107.238290"/>
    <trkpt lat="38.495210" lon="-107.241110"/>
    <trkpt lat="38.498220" lon="-107.243640"/>
    <trkpt lat="38.501290" lon="-107.246050"/>
    <trkpt lat="38.504490" lon="-107.248140"/>
    <trkpt lat="38.507540" lon="-107.250590"/>
    <trkpt lat="38.510510" lon="-107.253180"/>
    <trkpt lat="38.513310" lon="-107.256070"/>
    <trkpt lat="38.516280" lon="-107.258670"/>
    <trkpt lat="38.519230" lon="-107.261320"/>
    <trkpt lat="38.522100" lon="-107.264090"/>
    <trkpt lat="38.525040" lon="-107.266750"/>
    <trkpt lat="38.528010" lon="-107.269350"/>
    <trkpt lat="38.531090" lon="-107.271730"/>
    <trkpt lat="38.534300" lon="-107.273820"/>
    <trkpt lat="38.537420" lon="-107.276120"/>
    <trkpt lat="38.540610" lon="-107.278250"/>
    <trkpt lat="38.543900" lon="-107.280100"/>
    <trkpt lat="38.547110" lon="-107.282190"/>
    <trkpt lat="38.550230" lon="-107.284500"/>
    <trkpt lat="38.553300" lon="-107.286900"/>
    <trkpt lat="38.556320" lon="-107.289400"/>
    <trkpt lat="38.559540" lon="-107.291450"/>
    <trkpt lat="38.562860" lon="-107.293250"/>
    <trkpt lat="38.566130" lon="-107.295180"/>
    <trkpt lat="38.569500" lon="-107.296780"/>
    <trkpt lat="38.572920" lon="-107.298220"/>
    <trkpt lat="38.576350" lon="-107.299620"/>
    <trkpt lat="38.579870" lon="-107.300600"/>
    <trkpt lat="38.583320" lon="-107.301900"/>
    <trkpt lat="38.586780" lon="-107.303170"/>
    <trkpt lat="38.590230" lon="-107.304500"/>
    <trkpt lat="38.593670" lon="-107.305850"/>
    <trkpt lat="38.597170" lon="-107.306930"/>
    <trkpt lat="38.600710" lon="-107.307740"/>
    <trkpt lat="38.604250" lon="-107.308610"/>
    <trkpt lat="38.607820" lon="-107.309160"/>
    <trkpt lat="38.611360" lon="-107.309990"/>
    <trkpt lat="38.614940" lon="-107.310500"/>
    <trkpt lat="38.618460" lon="-107.311500"/>
    <trkpt lat="38.622000" lon="-107.312310"/>
    <trkpt lat="38.625580" lon="-107.312830"/>
    <trkpt lat="38.629160" lon="-107.313340"/>
    <trkpt lat="38.632680" lon="-107.314290"/>
    <trkpt lat="38.636240" lon="-107.314930"/>
    <trkpt lat="38.639760" lon="-107.315940"/>
    <trkpt lat="38.643200" lon="-107.317270"/>
    <trkpt lat="38.646680" lon="-107.318440"/>
    <trkpt lat="38.650200" lon="-107.319440"/>
    <trkpt lat="38.653710" lon="-107.320460"/>
    <trkpt lat="38.657130" lon="-107.321890"/>
    <trkpt lat="38.660540" lon="-107.323380"/>
    <trkpt lat="38.663960" lon="-107.324830"/>
    <trkpt lat="38.667340" lon="-107.326410"/>
    <trkpt lat="38.670760" lon="-107.327850"/>
    <trkpt lat="38.674240" lon="-107.329040"/>
    <trkpt lat="38.677770" lon="-107.329940"/>
    <trkpt lat="38.681330" lon="-107.330570"/>
    <trkpt lat="38.684920" lon="-107.331010"/>
    <trkpt lat="38.688520" lon="-107.331040"/>
    <trkpt lat="38.692110" lon="-107.331320"/>
    <trkpt lat="38.695700" lon="-107.331720"/>
    <trkpt lat="38.699280" lon="-107.332140"/>
    <trkpt lat="38.702880" lon="-107.332150"/>
    <trkpt lat="38.706480" lon="-107.332230"/>
    <trkpt lat="38.710050" lon="-107.332810"/>
    <trkpt lat="38.713650" lon="-107.333010"/>
    <trkpt lat="38.717250" lon="-107.333080"/>
    <trkpt lat="38.720840" lon="-107.333330"/>
    <trkpt lat="38.724430" lon="-107.333770"/>
    <trkpt lat="38.728010" lon="-107.334260"/>
    <trkpt lat="38.731540" lon="-107.335130"/>
    <trkpt lat="38.735090" lon="-107.335900"/>
    <trkpt lat="38.738680" lon="-107.336270"/>
    <trkpt lat="38.742280" lon="-107.336390"/>
    <trkpt lat="38.745870" lon="-107.336110"/>
    <trkpt lat="38.749470" lon="-107.336300"/>
    <trkpt lat="38.753070" lon="-107.336240"/>
    <trkpt lat="38.756660" lon="-107.335870"/>
    <trkpt lat="38.760240" lon="-107.335440"/>
    <trkpt lat="38.763840" lon="-107.335210"/>
    <trkpt lat="38.767440" lon="-107.335040"/>
    <trkpt lat="38.771010" lon="-107.334530"/>
    <trkpt lat="38.774550" lon="-107.333700"/>
    <trkpt lat="38.778110" lon="-107.333010"/>
    <trkpt lat="38.781690" lon="-107.332470"/>
    <trkpt lat="38.785290" lon="-107.332340"/>
    <trkpt lat="38.788880" lon="-107.332540"/>
    <trkpt lat="38.792460" lon="-107.333120"/>
    <trkpt lat="38.796030" lon="-107.333680"/>
    <trkpt lat="38.799630" lon="-107.333870"/>
    <trkpt lat="38.803230" lon="-107.333770"/>
    <trkpt lat="38.806820" lon="-107.334080"/>
    <trkpt lat="38.810410" lon="-107.334390"/>
    <trkpt lat="38.814010" lon="-107.334310"/>
    <trkpt lat="38.817590" lon="-107.333880"/>
    <trkpt lat="38.821170" lon="-107.333380"/>
    <trkpt lat="38.824730" lon="-107.332640"/>
    <trkpt lat="38.828310" lon="-107.332270"/>
    <trkpt lat="38.831910" lon="-107.332020"/>
    <trkpt lat="38.835480" lon="-107.331410"/>
    <trkpt lat="38.838990" lon="-107.330430"/>
    <trkpt lat="38.842540" lon="-107.329630"/>
    <trkpt lat="38.846030" lon="-107.328480"/>
    <trkpt lat="38.849570" lon="-107.327650"/>
    <trkpt lat="38.853130" lon="-107.326960"/>
    <trkpt lat="38.856700" lon="-107.326350"/>
    <trkpt lat="38.860290" lon="-107.326120"/>
    <trkpt lat="38.863890" lon="-107.326150"/>
    <trkpt lat="38.867490" lon="-107.326140"/>
    <trkpt lat="38.871090" lon="-107.326300"/>
    <trkpt lat="38.874680" lon="-107.326710"/>
    <trkpt lat="38.878230" lon="-107.327440"/>
    <trkpt lat="38.881830" lon="-107.327690"/>
    <trkpt lat="38.885430" lon="-107.327750"/>
    <trkpt lat="38.889020" lon="-107.328030"/>
    <trkpt lat="38.892620" lon="-107.328060"/>
    <trkpt lat="38.896210" lon="-107.328330"/>
    <trkpt lat="38.899780" lon="-107.328960"/>
    <trkpt lat="38.903320" lon="-107.329790"/>
    <trkpt lat="38.906870" lon="-107.330560"/>
    <trkpt lat="38.910400" lon="-107.331490"/>
    <trkpt lat="38.913930" lon="-107.332390"/>
    <trkpt lat="38.917500" lon="-107.332980"/>
    <trkpt lat="38.921100" lon="-107.333050"/>
    <trkpt lat="38.924700" lon="-107.333230"/>
    <trkpt lat="38.928290" lon="-107.333540"/>
    <trkpt lat="38.931850" lon="-107.334240"/>
    <trkpt lat="38.935440" lon="-107.334510"/>
    <trkpt lat="38.939040" lon="-107.334750"/>
    <trkpt lat="38.942630" lon="-107.334610"/>
    <trkpt lat="38.946230" lon="-107.334780"/>
    <trkpt lat="38.949810" lon="-107.335290"/>
    <trkpt lat="38.953410" lon="-107.335440"/>
    <trkpt lat="38.957000" lon="-107.335200"/>
    <trkpt lat="38.960580" lon="-107.334670"/>
    <trkpt lat="38.964160" lon="-107.334240"/>
    <trkpt lat="38.967750" lon="-107.333810"/>
    <trkpt lat="38.971340" lon="-107.333450"/>
    <trkpt lat="38.974900" lon="-107.332780"/>
    <trkpt lat="38.978430" lon="-107.331890"/>
    <trkpt lat="38.981910" lon="-107.330670"/>
    <trkpt lat="38.985410" lon="-107.329630"/>
    <trkpt lat="38.988870" lon="-107.328340"/>
    <trkpt lat="38.992240" lon="-107.326720"/>
    <trkpt lat="38.995540" lon="-107.324850"/>
    <trkpt lat="38.998850" lon="-107.323030"/>
    <trkpt lat="39.002200" lon="-107.321340"/>
    <trkpt lat="39.005640" lon="-107.319980"/>
    <trkpt lat="39.009050" lon="-107.318480"/>
    <trkpt lat="39.012440" lon="-107.316940"/>
    <trkpt lat="39.015790" lon="-107.315240"/>
    <trkpt lat="39.019000" lon="-107.313140"/>
    <trkpt lat="39.022180" lon="-107.310960"/>
    <trkpt lat="39.025240" lon="-107.308520"/>
    <trkpt lat="39.028300" lon="-107.306080"/>
    <trkpt lat="39.031200" lon="-107.303330"/>
    <trkpt lat="39.034140" lon="-107.300670"/>
    <trkpt lat="39.037260" lon="-107.298360"/>
    <trkpt lat="39.040530" lon="-107.296420"/>
    <trkpt lat="39.043910" lon="-107.294800"/>
    <trkpt lat="39.047270" lon="-107.293140"/>
    <trkpt lat="39.050730" lon="-107.291850"/>
    <trkpt lat="39.054250" lon="-107.290910"/>
    <trkpt lat="39.057710" lon="-107.289630"/>
    <trkpt lat="39.061220" lon="-107.288560"/>
    <trkpt lat="39.064750" lon="-107.287680"/>
    <trkpt lat="39.068270" lon="-107.286720"/>
    <trkpt lat="39.071830" lon="-107.286010"/>
    <trkpt lat="39.075420" lon="-107.285630"/>
    <trkpt lat="39.078990" lon="-107.285110"/>
    <trkpt lat="39.082570" lon="-107.284580"/>
    <trkpt lat="39.086140" lon="-107.283970"/>
    <trkpt lat="39.089670" lon="-107.283090"/>
    <trkpt lat="39.093150" lon="-107.281860"/>
    <trkpt lat="39.096660" lon="-107.280880"/>
    <trkpt lat="39.100200" lon="-107.279990"/>
    <trkpt lat="39.103710" lon="-107.278990"/>
    <trkpt lat="39.107190" lon="-107.277780"/>
    <trkpt lat="39.110680" lon="-107.276660"/>
    <trkpt lat="39.114100" lon="-107.275200"/>
    <trkpt lat="39.117430" lon="-107.273460"/>
    <trkpt lat="39.120710" lon="-107.271530"/>
    <trkpt lat="39.123990" lon="-107.269620"/>
    <trkpt lat="39.127280" lon="-107.267730"/>
    <trkpt lat="39.130660" lon="-107.266150"/>
    <trkpt lat="39.133900" lon="-107.264130"/>
    <trkpt lat="39.137290" lon="-107.262530"/>
    <trkpt lat="39.140620" lon="-107.260770"/>
    <trkpt lat="39.144060" lon="-107.259420"/>
    <trkpt lat="39.147380" lon="-107.257630"/>
    <trkpt lat="39.150700" lon="-107.255840"/>
    <trkpt lat="39.154020" lon="-107.254020"/>
    <trkpt lat="39.157260" lon="-107.252020"/>
    <trkpt lat="39.160560" lon="-107.250160"/>
    <trkpt lat="39.163890" lon="-107.248390"/>
    <trkpt lat="39.167270" lon="-107.246780"/>
    <trkpt lat="39.170600" lon="-107.245010"/>
    <trkpt lat="39.173980" lon="-107.243420"/>
    <trkpt lat="39.177390" lon="-107.241950"/>
    <trkpt lat="39.180750" lon="-107.240270"/>
    <trkpt lat="39.184150" lon="-107.238760"/>
    <trkpt lat="39.187650" lon="-107.237640"/>
    <trkpt lat="39.191120" lon="-107.236420"/>
    <trkpt lat="39.194540" lon="-107.234960"/>
    <trkpt lat="39.198020" lon="-107.233790"/>
    <trkpt lat="39.201550" lon="-107.232870"/>
    <trkpt lat="39.205070" lon="-107.231860"/>
    <trkpt lat="39.208480" lon="-107.230390"/>
    <trkpt lat="39.211790" lon="-107.228550"/>
    <trkpt lat="39.215130" lon="-107.226830"/>
    <trkpt lat="39.218420" lon="-107.224930"/>
    <trkpt lat="39.221610" lon="-107.222780"/>
    <trkpt lat="39.224770" lon="-107.220550"/>
    <trkpt lat="39.228050" lon="-107.218650"/>
    <trkpt lat="39.231420" lon="-107.217020"/>
    <trkpt lat="39.234680" lon="-107.215040"/>
    <trkpt lat="39.237940" lon="-107.213070"/>
    <trkpt lat="39.241280" lon="-107.211340"/>
    <trkpt lat="39.244690" lon="-107.209840"/>
    <trkpt lat="39.248140" lon="-107.208510"/>
    <trkpt lat="39.251630" lon="-107.207390"/>
    <trkpt lat="39.255090" lon="-107.206100"/>
    <trkpt lat="39.258510" lon="-107.204630"/>
    <trkpt lat="39.261860" lon="-107.202930"/>
    <trkpt lat="39.265080" lon="-107.200870"/>
    <trkpt lat="39.268270" lon="-107.198720"/>
    <trkpt lat="39.271340" lon="-107.196270"/>
    <trkpt lat="39.274320" lon="-107.193670"/>
    <trkpt lat="39.277460" lon="-107.191400"/>
    <trkpt lat="39.280730" lon="-107.189450"/>
    <trkpt lat="39.283920" lon="-107.187300"/>
    <trkpt lat="39.287070" lon="-107.185040"/>
    <trkpt lat="39.290120" lon="-107.182580"/>
    <trkpt lat="39.293140" lon="-107.180030"/>
    <trkpt lat="39.296030" lon="-107.177270"/>
    <trkpt lat="39.299090" lon="-107.174820"/>
    <trkpt lat="39.302040" lon="-107.172150"/>
    <trkpt lat="39.304980" lon="-107.169460"/>
    <trkpt lat="39.307860" lon="-107.166670"/>
    <trkpt lat="39.310720" lon="-107.163840"/>
    <trkpt lat="39.313630" lon="-107.161100"/>
    <trkpt lat="39.316470" lon="-107.158240"/>
    <trkpt lat="39.319110" lon="-107.155080"/>
    <trkpt lat="39.321870" lon="-107.152090"/>
    <trkpt lat="39.324480" lon="-107.148890"/>
    <trkpt lat="39.327200" lon="-107.145830"/>
    <trkpt lat="39.329990" lon="-107.142900"/>
    <trkpt lat="39.332710" lon="-107.139850"/>
    <trkpt lat="39.335350" lon="-107.136680"/>
    <trkpt lat="39.337940" lon="-107.133460"/>
    <trkpt lat="39.340780" lon="-107.130590"/>
    <trkpt lat="39.343720" lon="-107.127900"/>
    <trkpt lat="39.346760" lon="-107.125420"/>
    <trkpt lat="39.349650" lon="-107.122640"/>
    <trkpt lat="39.352640" lon="-107.120040"/>
    <trkpt lat="39.355510" lon="-107.117230"/>
    <trkpt lat="39.358260" lon="-107.114230"/>
    <trkpt lat="39.360810" lon="-107.110940"/>
    <trkpt lat="39.363170" lon="-107.107420"/>
    <trkpt lat="39.365400" lon="-107.103770"/>
    <trkpt lat="39.367460" lon="-107.099950"/>
    <trkpt lat="39.369750" lon="-107.096360"/>
    <trkpt lat="39.372230" lon="-107.092990"/>
    <trkpt lat="39.374890" lon="-107.089840"/>
    <trkpt lat="39.377790" lon="-107.087090"/>
    <trkpt lat="39.380810" lon="-107.084550"/>
    <trkpt lat="39.383760" lon="-107.081880"/>
    <trkpt lat="39.386700" lon="-107.079190"/>
    <trkpt lat="39.389740" lon="-107.076700"/>
    <trkpt lat="39.392740" lon="-107.074120"/>
    <trkpt lat="39.395590" lon="-107.071270"/>
    <trkpt lat="39.398610" lon="-107.068740"/>
    <trkpt lat="39.401580" lon="-107.066110"/>
    <trkpt lat="39.404540" lon="-107.063450"/>
    <trkpt lat="39.407440" lon="-107.060700"/>
    <trkpt lat="39.410290" lon="-107.057850"/>
    <trkpt lat="39.413360" lon="-107.055420"/>
    <trkpt lat="39.416530" lon="-107.053210"/>
    <trkpt lat="39.419850" lon="-107.051410"/>
    <trkpt lat="39.423080" lon="-107.049350"/>
    <trkpt lat="39.426370" lon="-107.047460"/>
    <trkpt lat="39.429540" lon="-107.045250"/>
    <trkpt lat="39.432580" lon="-107.042750"/>
    <trkpt lat="39.435470" lon="-107.039970"/>
    <trkpt lat="39.438400" lon="-107.037260"/>
    <trkpt lat="39.441340" lon="-107.034570"/>
    <trkpt lat="39.444220" lon="-107.031780"/>
    <trkpt lat="39.447040" lon="-107.028880"/>
    <trkpt lat="39.449810" lon="-107.025890"/>
    <trkpt lat="39.452630" lon="-107.023010"/>
    <trkpt lat="39.455270" lon="-107.019830"/>
    <trkpt lat="39.457960" lon="-107.016740"/>
    <trkpt lat="39.460490" lon="-107.013410"/>
    <trkpt lat="39.462900" lon="-107.009950"/>
    <trkpt lat="39.465430" lon="-107.006630"/>
    <trkpt lat="39.467970" lon="-107.003330"/>
    <trkpt lat="39.470740" lon="-107.000350"/>
    <trkpt lat="39.473730" lon="-106.997750"/>
    <trkpt lat="39.476820" lon="-106.995360"/>
    <trkpt lat="39.479860" lon="-106.992850"/>
    <trkpt lat="39.483060" lon="-106.990730"/>
    <trkpt lat="39.486420" lon="-106.989030"/>
    <trkpt lat="39.489810" lon="-106.987480"/>
    <trkpt lat="39.493190" lon="-106.985860"/>
    <trkpt lat="39.496660" lon="-106.984650"/>
    <trkpt lat="39.500210" lon="-106.983860"/>
    <trkpt lat="39.503720" lon="-106.982820"/>
    <trkpt lat="39.507190" lon="-106.981580"/>
    <trkpt lat="39.510730" lon="-106.980710"/>
    <trkpt lat="39.514230" lon="-106.979650"/>
    <trkpt lat="39.517700" lon="-106.978380"/>
    <trkpt lat="39.521060" lon="-106.976730"/>
    <trkpt lat="39.524340" lon="-106.974780"/>
    <trkpt lat="39.527570" lon="-106.972720"/>
    <trkpt lat="39.530940" lon="-106.971100"/>
    <trkpt lat="39.534340" lon="-106.969560"/>
    <trkpt lat="39.537730" lon="-106.967980"/>
    <trkpt lat="39.541030" lon="-106.966120"/>
    <trkpt lat="39.544330" lon="-106.964260"/>
    <trkpt lat="39.547640" lon="-106.962410"/>
    <trkpt lat="39.550940" lon="-106.960550"/>
    <trkpt lat="39.554190" lon="-106.958550"/>
    <trkpt lat="39.557340" lon="-106.956290"/>
    <trkpt lat="39.560540" lon="-106.954130"/>
    <trkpt lat="39.563590" lon="-106.951660"/>
    <trkpt lat="39.566700" lon="-106.949300"/>
    <trkpt lat="39.569930" lon="-106.947250"/>
    <trkpt lat="39.573070" lon="-106.944960"/>
    <trkpt lat="39.576060" lon="-106.942370"/>
    <trkpt lat="39.579190" lon="-106.940060"/>
    <trkpt lat="39.582500" lon="-106.938210"/>
    <trkpt lat="39.585810" lon="-106.936370"/>
    <trkpt lat="39.589060" lon="-106.934360"/>
    <trkpt lat="39.592180" lon="-106.932040"/>
    <trkpt lat="39.595320" lon="-106.929770"/>
    <trkpt lat="39.598450" lon="-106.927440"/>
    <trkpt lat="39.601460" lon="-106.924880"/>
    <trkpt lat="39.604640" lon="-106.922690"/>
    <trkpt lat="39.607880" lon="-106.920660"/>
    <trkpt lat="39.611020" lon="-106.918360"/>
    <trkpt lat="39.614250" lon="-106.916300"/>
    <trkpt lat="39.617480" lon="-106.914260"/>
    <trkpt lat="39.620650" lon="-106.912030"/>
    <trkpt lat="39.623950" lon="-106.910160"/>
    <trkpt lat="39.627280" lon="-106.908380"/>
    <trkpt lat="39.630600" lon="-106.906570"/>
    <trkpt lat="39.633990" lon="-106.905000"/>
    <trkpt lat="39.637420" lon="-106.903580"/>
    <trkpt lat="39.640930" lon="-106.902570"/>
    <trkpt lat="39.644380" lon="-106.901210"/>
    <trkpt lat="39.647880" lon="-106.900130"/>
    <trkpt lat="39.651450" lon="-106.899530"/>
    <trkpt lat="39.654970" lon="-106.898570"/>
    <trkpt lat="39.658540" lon="-106.897910"/>
    <trkpt lat="39.662130" lon="-106.897640"/>
    <trkpt lat="39.665690" lon="-106.896940"/>
    <trkpt lat="39.669190" lon="-106.895850"/>
    <trkpt lat="39.672750" lon="-106.895200"/>
    <trkpt lat="39.676350" lon="-106.894910"/>
    <trkpt lat="39.679940" lon="-106.894560"/>
    <trkpt lat="39.683500" lon="-106.893850"/>
    <trkpt lat="39.687010" lon="-106.892830"/>
    <trkpt lat="39.690520" lon="-106.891790"/>
    <trkpt lat="39.694000" lon="-106.890580"/>
    <trkpt lat="39.697550" lon="-106.889800"/>
    <trkpt lat="39.701030" lon="-106.888640"/>
    <trkpt lat="39.704550" lon="-106.887650"/>
    <trkpt lat="39.708080" lon="-106.886730"/>
    <trkpt lat="39.711630" lon="-106.885920"/>
    <trkpt lat="39.715170" lon="-106.885090"/>
    <trkpt lat="39.718680" lon="-106.884030"/>
    <trkpt lat="39.722150" lon="-106.882790"/>
    <trkpt lat="39.725640" lon="-106.881660"/>
    <trkpt lat="39.729120" lon="-106.880470"/>
    <trkpt lat="39.732650" lon="-106.879540"/>
    <trkpt lat="39.736150" lon="-106.878450"/>
    <trkpt lat="39.739710" lon="-106.877760"/>
    <trkpt lat="39.743300" lon="-106.877370"/>
    <trkpt lat="39.746870" lon="-106.876750"/>
    <trkpt lat="39.750440" lon="-106.876150"/>
    <trkpt lat="39.754030" lon="-106.875890"/>
    <trkpt lat="39.757630" lon="-106.875800"/>
    <trkpt lat="39.761230" lon="-106.875540"/>
    <trkpt lat="39.764810" lon="-106.875110"/>
    <trkpt lat="39.768410" lon="-106.874990"/>
    <trkpt lat="39.772010" lon="-106.875260"/>
    <trkpt lat="39.775580" lon="-106.875770"/>
    <trkpt lat="39.779160" lon="-106.876310"/>
    <trkpt lat="39.782710" lon="-106.877130"/>
    <trkpt lat="39.786270" lon="-106.877820"/>
    <trkpt lat="39.789850" lon="-106.878270"/>
    <trkpt lat="39.793400" lon="-106.879030"/>
    <trkpt lat="39.796890" lon="-106.880170"/>
    <trkpt lat="39.800440" lon="-106.880950"/>
    <trkpt lat="39.804020" lon="-106.881440"/>
    <trkpt lat="39.807600" lon="-106.881980"/>
    <trkpt lat="39.811150" lon="-106.882740"/>
    <trkpt lat="39.814690" lon="-106.883570"/>
    <trkpt lat="39.818190" lon="-106.884690"/>
    <trkpt lat="39.821720" lon="-106.885620"/>
    <trkpt lat="39.825210" lon="-106.886770"/>
    <trkpt lat="39.828770" lon="-106.887470"/>
    <trkpt lat="39.832260" lon="-106.888600"/>
    <trkpt lat="39.835720" lon="-106.889910"/>
    <trkpt lat="39.839160" lon="-106.891270"/>
    <trkpt lat="39.842580" lon="-106.892760"/>
    <trkpt lat="39.845920" lon="-106.894490"/>
    <trkpt lat="39.849350" lon="-106.895910"/>
    <trkpt lat="39.852750" lon="-106.897460"/>
    <trkpt lat="39.856040" lon="-106.899380"/>
    <trkpt lat="39.859400" lon="-106.901060"/>
    <trkpt lat="39.862830" lon="-106.902460"/>
    <trkpt lat="39.866210" lon="-106.904100"/>
    <trkpt lat="39.869610" lon="-106.905640"/>
    <trkpt lat="39.872880" lon="-106.907580"/>
    <trkpt lat="39.876150" lon="-106.909540"/>
    <trkpt lat="39.879440" lon="-106.911470"/>
    <trkpt lat="39.882760" lon="-106.913260"/>
    <trkpt lat="39.886020" lon="-106.915250"/>
    <trkpt lat="39.889410" lon="-106.916840"/>
    <trkpt lat="39.892760" lon="-106.918580"/>
    <trkpt lat="39.896140" lon="-106.920170"/>
    <trkpt lat="39.899510" lon="-106.921820"/>
    <trkpt lat="39.902910" lon="-106.923350"/>
    <trkpt lat="39.906400" lon="-106.924530"/>
    <trkpt lat="39.909810" lon="-106.926020"/>
    <trkpt lat="39.913290" lon="-106.927240"/>
    <trkpt lat="39.916800" lon="-106.928260"/>
    <trkpt lat="39.920310" lon="-106.929350"/>
    <trkpt lat="39.923820" lon="-106.930350"/>
    <trkpt lat="39.927380" lon="-106.931060"/>
    <trkpt lat="39.930940" lon="-106.931720"/>
    <trkpt lat="39.934530" lon="-106.932130"/>
    <trkpt lat="39.938130" lon="-106.932330"/>
    <trkpt lat="39.941730" lon="-106.932390"/>
    <trkpt lat="39.945320" lon="-106.932190"/>
    <trkpt lat="39.948900" lon="-106.931690"/>
    <trkpt lat="39.952500" lon="-106.931380"/>
    <trkpt lat="39.956090" lon="-106.931200"/>
    <trkpt lat="39.959690" lon="-106.931300"/>
    <trkpt lat="39.963260" lon="-106.931900"/>
    <trkpt lat="39.966790" lon="-106.932850"/>
    <trkpt lat="39.970290" lon="-106.933950"/>
    <trkpt lat="39.973840" lon="-106.934740"/>
    <trkpt lat="39.977420" lon="-106.935140"/>
    <trkpt lat="39.980960" lon="-106.936020"/>
    <trkpt lat="39.984440" lon="-106.937220"/>
    <trkpt lat="39.987860" lon="-106.938670"/>
    <trkpt lat="39.991280" lon="-106.940170"/>
    <trkpt lat="39.994700" lon="-106.941600"/>
    <trkpt lat="39.998180" lon="-106.942840"/>
    <trkpt lat="40.001700" lon="-106.943800"/>
    <trkpt lat="40.005270" lon="-106.944390"/>
    <trkpt lat="40.008810" lon="-106.945300"/>
    <trkpt lat="40.012320" lon="-106.946300"/>
    <trkpt lat="40.015770" lon="-106.947660"/>
    <trkpt lat="40.019280" lon="-106.948670"/>
    <trkpt lat="40.022750" lon="-106.949960"/>
    <trkpt lat="40.026240" lon="-106.951120"/>
    <trkpt lat="40.029630" lon="-106.952680"/>
    <trkpt lat="40.032990" lon="-106.954390"/>
    <trkpt lat="40.036390" lon="-106.955920"/>
    <trkpt lat="40.039860" lon="-106.957180"/>
    <trkpt lat="40.043230" lon="-106.958830"/>
    <trkpt lat="40.046690" lon="-106.960110"/>
    <trkpt lat="40.050110" lon="-106.961610"/>
    <trkpt lat="40.053550" lon="-106.962980"/>
    <trkpt lat="40.057000" lon="-106.964330"/>
    <trkpt lat="40.060460" lon="-106.965630"/>
    <trkpt lat="40.063850" lon="-106.967210"/>
    <trkpt lat="40.067300" lon="-106.968550"/>
    <trkpt lat="40.070660" lon="-106.970230"/>
    <trkpt lat="40.073920" lon="-106.972230"/>
    <trkpt lat="40.077050" lon="-106.974560"/>
    <trkpt lat="40.080130" lon="-106.976980"/>
    <trkpt lat="40.083230" lon="-106.979390"/>
    <trkpt lat="40.086340" lon="-106.981760"/>
    <trkpt lat="40.089530" lon="-106.983930"/>
    <trkpt lat="40.092800" lon="-106.985900"/>
    <trkpt lat="40.096040" lon="-106.987950"/>
    <trkpt lat="40.099250" lon="-106.990070"/>
    <trkpt lat="40.102470" lon="-106.992180"/>
    <trkpt lat="40.105750" lon="-106.994130"/>
    <trkpt lat="40.109120" lon="-106.995780"/>
    <trkpt lat="40.112350" lon="-106.997870"/>
    <trkpt lat="40.115660" lon="-106.999710"/>
    <trkpt lat="40.119020" lon="-107.001400"/>
    <trkpt lat="40.122370" lon="-107.003140"/>
    <trkpt lat="40.125730" lon="-107.004830"/>
    <trkpt lat="40.129080" lon="-107.006530"/>
    <trkpt lat="40.132340" lon="-107.008540"/>
    <trkpt lat="40.135700" lon="-107.010230"/>
    <trkpt lat="40.138970" lon="-107.012180"/>
    <trkpt lat="40.142370" lon="-107.013750"/>
    <trkpt lat="40.145690" lon="-107.015560"/>
    <trkpt lat="40.148980" lon="-107.017490"/>
    <trkpt lat="40.152210" lon="-107.019560"/>
    <trkpt lat="40.155540" lon="-107.021360"/>
    <trkpt lat="40.158940" lon="-107.022880"/>
    <trkpt lat="40.162400" lon="-107.024180"/>
    <trkpt lat="40.165930" lon="-107.025110"/>
    <trkpt lat="40.169400" lon="-107.026370"/>
    <trkpt lat="40.172830" lon="-107.027820"/>
    <trkpt lat="40.176190" lon="-107.029520"/>
    <trkpt lat="40.179640" lon="-107.030850"/>
    <trkpt lat="40.183140" lon="-107.031960"/>
    <trkpt lat="40.186520" lon="-107.033580"/>
    <trkpt lat="40.189890" lon="-107.035240"/>
    <trkpt lat="40.193200" lon="-107.037080"/>
    <trkpt lat="40.196550" lon="-107.038810"/>
    <trkpt lat="40.199950" lon="-107.040350"/>
    <trkpt lat="40.203300" lon="-107.042080"/>
    <trkpt lat="40.206660" lon="-107.043770"/>
    <trkpt lat="40.210090" lon="-107.045190"/>
    <trkpt lat="40.213410" lon="-107.047040"/>
    <trkpt lat="40.216710" lon="-107.048920"/>
    <trkpt lat="40.220070" lon="-107.050600"/>
    <trkpt lat="40.223500" lon="-107.052030"/>
    <trkpt lat="40.226870" lon="-107.053690"/>
    <trkpt lat="40.230290" lon="-107.055170"/>
    <trkpt lat="40.233760" lon="-107.056440"/>
    <trkpt lat="40.237160" lon="-107.057990"/>
    <trkpt lat="40.240630" lon="-107.059230"/>
    <trkpt lat="40.244130" lon="-107.060310"/>
    <trkpt lat="40.247650" lon="-107.061300"/>
    <trkpt lat="40.251100" lon="-107.062670"/>
    <trkpt lat="40.254480" lon="-107.064270"/>
    <trkpt lat="40.257920" lon="-107.065700"/>
    <trkpt lat="40.261380" lon="-107.066990"/>
    <trkpt lat="40.264740" lon="-107.068670"/>
    <trkpt lat="40.267990" lon="-107.070690"/>
    <trkpt lat="40.271190" lon="-107.072880"/>
    <trkpt lat="40.274500" lon="-107.074730"/>
    <trkpt lat="40.277850" lon="-107.076460"/>
    <trkpt lat="40.281090" lon="-107.078500"/>
    <trkpt lat="40.284230" lon="-107.080820"/>
    <trkpt lat="40.287280" lon="-107.083320"/>
    <trkpt lat="40.290230" lon="-107.086030"/>
    <trkpt lat="40.293130" lon="-107.088830"/>
    <trkpt lat="40.296150" lon="-107.091400"/>
    <trkpt lat="40.299300" lon="-107.093680"/>
    <trkpt lat="40.302260" lon="-107.096360"/>
    <trkpt lat="40.305330" lon="-107.098830"/>
    <trkpt lat="40.308280" lon="-107.101530"/>
    <trkpt lat="40.311370" lon="-107.103960"/>
    <trkpt lat="40.314520" lon="-107.106240"/>
    <trkpt lat="40.317780" lon="-107.108240"/>
    <trkpt lat="40.320960" lon="-107.110450"/>
    <trkpt lat="40.324260" lon="-107.112350"/>
    <trkpt lat="40.327490" lon="-107.114430"/>
    <trkpt lat="40.330560" lon="-107.116910"/>
    <trkpt lat="40.333580" lon="-107.119480"/>
    <trkpt lat="40.336570" lon="-107.122100"/>
    <trkpt lat="40.339730" lon="-107.124360"/>
    <trkpt lat="40.342830" lon="-107.126760"/>
    <trkpt lat="40.346070" lon="-107.128830"/>
    <trkpt lat="40.349430" lon="-107.130530"/>
    <trkpt lat="40.352760" lon="-107.132300"/>
    <trkpt lat="40.356140" lon="-107.133940"/>
    <trkpt lat="40.359420" lon="-107.135880"/>
    <trkpt lat="40.362810" lon="-107.137470"/>
    <trkpt lat="40.366230" lon="-107.138940"/>
    <trkpt lat="40.369630" lon="-107.140510"/>
    <trkpt lat="40.373070" lon="-107.141910"/>
    <trkpt lat="40.376500" lon="-107.143330"/>
    <trkpt lat="40.379840" lon="-107.145080"/>
    <trkpt lat="40.383280" lon="-107.146500"/>
    <trkpt lat="40.386660" lon="-107.148110"/>
    <trkpt lat="40.390120" lon="-107.149430"/>
    <trkpt lat="40.393640" lon="-107.150460"/>
    <trkpt lat="40.397170" lon="-107.151380"/>
    <trkpt lat="40.400740" lon="-107.151990"/>
    <trkpt lat="40.404280" lon="-107.152790"/>
    <trkpt lat="40.407870" lon="-107.153210"/>
    <trkpt lat="40.411460" lon="-107.153630"/>
    <trkpt lat="40.415010" lon="-107.154370"/>
    <trkpt lat="40.418520" lon="-107.155440"/>
    <trkpt lat="40.421930" lon="-107.156940"/>
    <trkpt lat="40.425310" lon="-107.158560"/>
    <trkpt lat="40.428660" lon="-107.160300"/>
    <trkpt lat="40.431910" lon="-107.162340"/>
    <trkpt lat="40.435290" lon="-107.163980"/>
    <trkpt lat="40.438570" lon="-107.165910"/>
    <trkpt lat="40.441750" lon="-107.168120"/>
    <trkpt lat="40.444970" lon="-107.170250"/>
    <trkpt lat="40.448130" lon="-107.172510"/>
    <trkpt lat="40.451380" lon="-107.174540"/>
    <trkpt lat="40.454550" lon="-107.176790"/>
    <trkpt lat="40.457850" lon="-107.178680"/>
    <trkpt lat="40.461140" lon="-107.180610"/>
    <trkpt lat="40.464460" lon="-107.182420"/>
    <trkpt lat="40.467680" lon="-107.184530"/>
    <trkpt lat="40.470980" lon="-107.186420"/>
    <trkpt lat="40.474370" lon="-107.188020"/>
    <trkpt lat="40.477810" lon="-107.189450"/>
    <trkpt lat="40.481310" lon="-107.190520"/>
    <trkpt lat="40.484760" lon="-107.191860"/>
    <trkpt lat="40.488290" lon="-107.192840"/>
    <trkpt lat="40.491850" lon="-107.193510"/>
    <trkpt lat="40.495420" lon="-107.194140"/>
    <trkpt lat="40.498910" lon="-107.195280"/>
    <trkpt lat="40.502450" lon="-107.196170"/>
    <trkpt lat="40.506030" lon="-107.196700"/>
    <trkpt lat="40.509620" lon="-107.196940"/>
    <trkpt lat="40.513210" lon="-107.197270"/>
    <trkpt lat="40.516810" lon="-107.197300"/>
    <trkpt lat="40.520410" lon="-107.197470"/>
    <trkpt lat="40.524000" lon="-107.197710"/>
    <trkpt lat="40.527600" lon="-107.197630"/>
    <trkpt lat="40.531200" lon="-107.197630"/>
    <trkpt lat="40.534800" lon="-107.197620"/>
    <trkpt lat="40.538400" lon="-107.197740"/>
    <trkpt lat="40.542000" lon="-107.197580"/>
    <trkpt lat="40.545600" lon="-107.197560"/>
    <trkpt lat="40.549200" lon="-107.197430"/>
    <trkpt lat="40.552800" lon="-107.197610"/>
    <trkpt lat="40.556380" lon="-107.198020"/>
    <trkpt lat="40.559980" lon="-107.198330"/>
    <trkpt lat="40.563550" lon="-107.198930"/>
    <trkpt lat="40.567140" lon="-107.199260"/>
    <trkpt lat="40.570710" lon="-107.199880"/>
    <trkpt lat="40.574260" lon="-107.200660"/>
    <trkpt lat="40.577850" lon="-107.200990"/>
    <trkpt lat="40.581420" lon="-107.201550"/>
    <trkpt lat="40.584980" lon="-107.202320"/>
    <trkpt lat="40.588570" lon="-107.202650"/>
    <trkpt lat="40.592170" lon="-107.202810"/>
    <trkpt lat="40.595760" lon="-107.202650"/>
    <trkpt lat="40.599350" lon="-107.202210"/>
    <trkpt lat="40.602890" lon="-107.201390"/>
    <trkpt lat="40.606440" lon="-107.200540"/>
    <trkpt lat="40.610030" lon="-107.200240"/>
    <trkpt lat="40.613630" lon="-107.200240"/>
    <trkpt lat="40.617230" lon="-107.200340"/>
    <trkpt lat="40.620830" lon="-107.200280"/>
    <trkpt lat="40.624430" lon="-107.200230"/>
    <trkpt lat="40.628020" lon="-107.199880"/>
    <trkpt lat="40.631620" lon="-107.199870"/>
    <trkpt lat="40.635220" lon="-107.199840"/>
    <trkpt lat="40.638820" lon="-107.199970"/>
    <trkpt lat="40.642420" lon="-107.199960"/>
    <trkpt lat="40.646010" lon="-107.200180"/>
    <trkpt lat="40.649590" lon="-107.200730"/>
    <trkpt lat="40.653180" lon="-107.201040"/>
    <trkpt lat="40.656730" lon="-107.201820"/>
    <trkpt lat="40.660320" lon="-107.202160"/>
    <trkpt lat="40.663920" lon="-107.202330"/>
    <trkpt lat="40.667520" lon="-107.202100"/>
    <trkpt lat="40.671110" lon="-107.201870"/>
    <trkpt lat="40.674710" lon="-107.201730"/>
    <trkpt lat="40.678310" lon="-107.201500"/>
    <trkpt lat="40.681880" lon="-107.200930"/>
    <trkpt lat="40.685480" lon="-107.200730"/>
    <trkpt lat="40.689070" lon="-107.200920"/>
    <trkpt lat="40.692670" lon="-107.200950"/>
    <trkpt lat="40.696270" lon="-107.200740"/>
    <trkpt lat="40.699860" lon="-107.200450"/>
    <trkpt lat="40.703460" lon="-107.200270"/>
    <trkpt lat="40.707060" lon="-107.200170"/>
    <trkpt lat="40.710640" lon="-107.199670"/>
    <trkpt lat="40.714210" lon="-107.199020"/>
    <trkpt lat="40.717800" lon="-107.198870"/>
    <trkpt lat="40.721400" lon="-107.198600"/>
    <trkpt lat="40.724990" lon="-107.198340"/>
    <trkpt lat="40.728570" lon="-107.197850"/>
    <trkpt lat="40.732160" lon="-107.197490"/>
    <trkpt lat="40.735730" lon="-107.196820"/>
    <trkpt lat="40.739310" lon="-107.196320"/>
    <trkpt lat="40.742910" lon="-107.196160"/>
    <trkpt lat="40.746490" lon="-107.195680"/>
    <trkpt lat="40.750080" lon="-107.195290"/>
    <trkpt lat="40.753660" lon="-107.194850"/>
    <trkpt lat="40.757260" lon="-107.194810"/>
    <trkpt lat="40.760850" lon="-107.194470"/>
    <trkpt lat="40.764450" lon="-107.194230"/>
    <trkpt lat="40.768050" lon="-107.194200"/>
    <trkpt lat="40.771650" lon="-107.194170"/>
    <trkpt lat="40.775240" lon="-107.194290"/>
    <trkpt lat="40.778840" lon="-107.193950"/>
    <trkpt lat="40.782400" lon="-107.193240"/>
    <trkpt lat="40.785960" lon="-107.192620"/>
    <trkpt lat="40.789530" lon="-107.191970"/>
    <trkpt lat="40.793080" lon="-107.191160"/>
    <trkpt lat="40.796630" lon="-107.190410"/>
    <trkpt lat="40.800220" lon="-107.190020"/>
    <trkpt lat="40.803820" lon="-107.189960"/>
    <trkpt lat="40.807400" lon="-107.189410"/>
    <trkpt lat="40.810950" lon="-107.188620"/>
    <trkpt lat="40.814490" lon="-107.187760"/>
    <trkpt lat="40.817980" lon="-107.186590"/>
    <trkpt lat="40.821500" lon="-107.185630"/>
    <trkpt lat="40.825070" lon="-107.185010"/>
    <trkpt lat="40.828640" lon="-107.184360"/>
    <trkpt lat="40.832180" lon="-107.183480"/>
    <trkpt lat="40.835760" lon="-107.182980"/>
    <trkpt lat="40.839310" lon="-107.182190"/>
    <trkpt lat="40.842810" lon="-107.181110"/>
    <trkpt lat="40.846240" lon="-107.179650"/>
    <trkpt lat="40.849600" lon="-107.177950"/>
    <trkpt lat="40.852910" lon="-107.176060"/>
    <trkpt lat="40.856340" lon="-107.174610"/>
    <trkpt lat="40.859820" lon="-107.173440"/>
    <trkpt lat="40.863360" lon="-107.172510"/>
    <trkpt lat="40.866900" lon="-107.171710"/>
    <trkpt lat="40.870480" lon="-107.171150"/>
    <trkpt lat="40.874080" lon="-107.170950"/>
    <trkpt lat="40.877670" lon="-107.171050"/>
    <trkpt lat="40.881270" lon="-107.171220"/>
    <trkpt lat="40.884860" lon="-107.171580"/>
    <trkpt lat="40.888460" lon="-107.171730"/>
    <trkpt lat="40.892060" lon="-107.171500"/>
    <trkpt lat="40.895660" lon="-107.171510"/>
    <trkpt lat="40.899250" lon="-107.171690"/>
    <trkpt lat="40.902850" lon="-107.171480"/>
    <trkpt lat="40.906410" lon="-107.170740"/>
    <trkpt lat="40.909950" lon="-107.169900"/>
    <trkpt lat="40.913520" lon="-107.169310"/>
    <trkpt lat="40.917110" lon="-107.168900"/>
    <trkpt lat="40.920710" lon="-107.168880"/>
    <trkpt lat="40.924300" lon="-107.169200"/>
    <trkpt lat="40.927900" lon="-107.169240"/>
    <trkpt lat="40.931490" lon="-107.169570"/>
    <trkpt lat="40.935080" lon="-107.169880"/>
    <trkpt lat="40.938660" lon="-107.170370"/>
    <trkpt lat="40.942220" lon="-107.171110"/>
    <trkpt lat="40.945820" lon="-107.171240"/>
    <trkpt lat="40.949410" lon="-107.170820"/>
    <trkpt lat="40.953000" lon="-107.170710"/>
    <trkpt lat="40.956600" lon="-107.170400"/>
    <trkpt lat="40.960190" lon="-107.170070"/>
    <trkpt lat="40.963770" lon="-107.169570"/>
    <trkpt lat="40.967320" lon="-107.168820"/>
    <trkpt lat="40.970800" lon="-107.167580"/>
    <trkpt lat="40.974210" lon="-107.166060"/>
    <trkpt lat="40.977590" lon="-107.164390"/>
    <trkpt lat="40.980990" lon="-107.162850"/>
    <trkpt lat="40.984410" lon="-107.161350"/>
    <trkpt lat="40.987820" lon="-107.159830"/>
    <trkpt lat="40.991200" lon="-107.158200"/>
    <trkpt lat="40.994630" lon="-107.156740"/>
    <trkpt lat="40.998030" lon="-107.155150"/>
    <trkpt lat="41.001500" lon="-107.153890"/>
    <trkpt lat="41.005010" lon="-107.152830"/>
    <trkpt lat="41.008560" lon="-107.152050"/>
    <trkpt lat="41.012120" lon="-107.151380"/>
    <trkpt lat="41.015670" lon="-107.150520"/>
    <trkpt lat="41.019230" lon="-107.149870"/>
    <trkpt lat="41.022820" lon="-107.149540"/>
    <trkpt lat="41.026420" lon="-107.149250"/>
    <trkpt lat="41.030020" lon="-107.149210"/>
    <trkpt lat="41.033610" lon="-107.148860"/>
    <trkpt lat="41.037140" lon="-107.147950"/>
    <trkpt lat="41.040650" lon="-107.146910"/>
    <trkpt lat="41.044220" lon="-107.146240"/>
    <trkpt lat="41.047750" lon="-107.145310"/>
    <trkpt lat="41.051220" lon="-107.144020"/>
    <trkpt lat="41.054560" lon="-107.142270"/>
    <trkpt lat="41.057830" lon="-107.140260"/>
    <trkpt lat="41.061030" lon="-107.138070"/>
    <trkpt lat="41.064290" lon="-107.136040"/>
    <trkpt lat="41.067520" lon="-107.133940"/>
    <trkpt lat="41.070750" lon="-107.131840"/>
    <trkpt lat="41.074070" lon="-107.129970"/>
    <trkpt lat="41.077330" lon="-107.127960"/>
    <trkpt lat="41.080470" lon="-107.125610"/>
    <trkpt lat="41.083680" lon="-107.123460"/>
    <trkpt lat="41.086960" lon="-107.121490"/>
    <trkpt lat="41.090310" lon="-107.119740"/>
    <trkpt lat="41.093620" lon="-107.117860"/>
    <trkpt lat="41.096910" lon="-107.115910"/>
    <trkpt lat="41.100080" lon="-107.113670"/>
    <trkpt lat="41.103240" lon="-107.111370"/>
    <trkpt lat="41.106430" lon="-107.109160"/>
    <trkpt lat="41.109690" lon="-107.107130"/>
    <trkpt lat="41.112920" lon="-107.105020"/>
    <trkpt lat="41.116050" lon="-107.102650"/>
    <trkpt lat="41.119020" lon="-107.099970"/>
    <trkpt lat="41.121900" lon="-107.097090"/>
    <trkpt lat="41.124890" lon="-107.094420"/>
    <trkpt lat="41.128000" lon="-107.092020"/>
    <trkpt lat="41.131210" lon="-107.089860"/>
    <trkpt lat="41.134340" lon="-107.087490"/>
    <trkpt lat="41.137420" lon="-107.085030"/>
    <trkpt lat="41.140320" lon="-107.082200"/>
    <trkpt lat="41.143380" lon="-107.079680"/>
    <trkpt lat="41.146570" lon="-107.077460"/>
    <trkpt lat="41.149800" lon="-107.075330"/>
    <trkpt lat="41.152950" lon="-107.073030"/>
    <trkpt lat="41.156110" lon="-107.070740"/>
    <trkpt lat="41.159170" lon="-107.068220"/>
    <trkpt lat="41.162390" lon="-107.066090"/>
    <trkpt lat="41.165700" lon="-107.064200"/>
    <trkpt lat="41.168910" lon="-107.062050"/>
    <trkpt lat="41.171960" lon="-107.059500"/>
    <trkpt lat="41.174920" lon="-107.056760"/>
    <trkpt lat="41.177860" lon="-107.054020"/>
    <trkpt lat="41.180650" lon="-107.050990"/>
    <trkpt lat="41.183250" lon="-107.047680"/>
    <trkpt lat="41.185790" lon="-107.044300"/>
    <trkpt lat="41.188290" lon="-107.040850"/>
    <trkpt lat="41.190910" lon="-107.037570"/>
    <trkpt lat="41.193770" lon="-107.034670"/>
    <trkpt lat="41.196580" lon="-107.031670"/>
    <trkpt lat="41.199280" lon="-107.028520"/>
    <trkpt lat="41.202170" lon="-107.025660"/>
    <trkpt lat="41.205070" lon="-107.022820"/>
    <trkpt lat="41.208110" lon="-107.020250"/>
    <trkpt lat="41.211320" lon="-107.018090"/>
    <trkpt lat="41.214590" lon="-107.016080"/>
    <trkpt lat="41.217930" lon="-107.014320"/>
    <trkpt lat="41.221340" lon="-107.012750"/>
    <trkpt lat="41.224630" lon="-107.010820"/>
    <trkpt lat="41.227800" lon="-107.008550"/>
    <trkpt lat="41.230840" lon="-107.006000"/>
    <trkpt lat="41.234030" lon="-107.003770"/>
    <trkpt lat="41.237360" lon="-107.001950"/>
    <trkpt lat="41.240660" lon="-107.000040"/>
    <trkpt lat="41.244030" lon="-106.998350"/>
    <trkpt lat="41.247390" lon="-106.996640"/>
    <trkpt lat="41.250690" lon="-106.994710"/>
    <trkpt lat="41.253920" lon="-106.992620"/>
    <trkpt lat="41.257150" lon="-106.990490"/>
    <trkpt lat="41.260230" lon="-106.988000"/>
    <trkpt lat="41.263180" lon="-106.985270"/>
    <trkpt lat="41.266100" lon="-106.982460"/>
    <trkpt lat="41.268970" lon="-106.979570"/>
    <trkpt lat="41.271910" lon="-106.976820"/>
    <trkpt lat="41.274710" lon="-106.973790"/>
    <trkpt lat="41.277490" lon="-106.970750"/>
    <trkpt lat="41.280490" lon="-106.968110"/>
    <trkpt lat="41.283670" lon="-106.965870"/>
    <trkpt lat="41.286690" lon="-106.963260"/>
    <trkpt lat="41.289610" lon="-106.960450"/>
    <trkpt lat="41.292590" lon="-106.957760"/>
    <trkpt lat="41.295470" lon="-106.954880"/>
    <trkpt lat="41.298310" lon="-106.951940"/>
    <trkpt lat="41.300970" lon="-106.948720"/>
    <trkpt lat="41.303440" lon="-106.945240"/>
    <trkpt lat="41.306140" lon="-106.942060"/>
    <trkpt lat="41.308980" lon="-106.939110"/>
    <trkpt lat="41.311640" lon="-106.935880"/>
    <trkpt lat="41.314490" lon="-106.932960"/>
    <trkpt lat="41.317270" lon="-106.929920"/>
    <trkpt lat="41.320030" lon="-106.926830"/>
    <trkpt lat="41.322670" lon="-106.923570"/>
    <trkpt lat="41.325160" lon="-106.920110"/>
    <trkpt lat="41.327580" lon="-106.916560"/>
    <trkpt lat="41.330100" lon="-106.913130"/>
    <trkpt lat="41.332890" lon="-106.910110"/>
    <trkpt lat="41.335510" lon="-106.906820"/>
    <trkpt lat="41.338300" lon="-106.903780"/>
    <trkpt lat="41.341300" lon="-106.901130"/>
    <trkpt lat="41.344340" lon="-106.898570"/>
    <trkpt lat="41.347490" lon="-106.896260"/>
    <trkpt lat="41.350590" lon="-106.893820"/>
    <trkpt lat="41.353740" lon="-106.891490"/>
    <trkpt lat="41.356930" lon="-106.889270"/>
    <trkpt lat="41.360180" lon="-106.887210"/>
    <trkpt lat="41.363390" lon="-106.885030"/>
    <trkpt lat="41.366700" lon="-106.883140"/>
    <trkpt lat="41.370030" lon="-106.881330"/>
    <trkpt lat="41.373270" lon="-106.879240"/>
    <trkpt lat="41.376460" lon="-106.877020"/>
    <trkpt lat="41.379780" lon="-106.875150"/>
    <trkpt lat="41.383190" lon="-106.873610"/>
    <trkpt lat="41.386530" lon="-106.871820"/>
    <trkpt lat="41.389860" lon="-106.870000"/>
    <trkpt lat="41.393250" lon="-106.868380"/>
    <trkpt lat="41.396620" lon="-106.866690"/>
    <trkpt lat="41.400000" lon="-106.865070"/>
    <trkpt lat="41.403350" lon="-106.863280"/>
    <trkpt lat="41.406670" lon="-106.861450"/>
    <trkpt lat="41.409900" lon="-106.859320"/>
    <trkpt lat="41.413210" lon="-106.857430"/>
    <trkpt lat="41.416640" lon="-106.855980"/>
    <trkpt lat="41.420050" lon="-106.854440"/>
    <trkpt lat="41.423420" lon="-106.852760"/>
    <trkpt lat="41.426710" lon="-106.850800"/>
    <trkpt lat="41.430100" lon="-106.849180"/>
    <trkpt lat="41.433540" lon="-106.847760"/>
    <trkpt lat="41.437060" lon="-106.846760"/>
    <trkpt lat="41.440500" lon="-106.845340"/>
    <trkpt lat="41.443840" lon="-106.843560"/>
    <trkpt lat="41.447050" lon="-106.841380"/>
    <trkpt lat="41.450230" lon="-106.839130"/>
    <trkpt lat="41.453400" lon="-106.836840"/>
    <trkpt lat="41.456630" lon="-106.834740"/>
    <trkpt lat="41.459960" lon="-106.832910"/>
    <trkpt lat="41.463370" lon="-106.831380"/>
    <trkpt lat="41.466810" lon="-106.829960"/>
    <trkpt lat="41.470240" lon="-106.828500"/>
    <trkpt lat="41.473620" lon="-106.826840"/>
    <trkpt lat="41.476890" lon="-106.824830"/>
    <trkpt lat="41.480140" lon="-106.822760"/>
    <trkpt lat="41.483470" lon="-106.820950"/>
    <trkpt lat="41.486920" lon="-106.819540"/>
    <trkpt lat="41.490280" lon="-106.817820"/>
    <trkpt lat="41.493560" lon="-106.815860"/>
    <trkpt lat="41.496900" lon="-106.814040"/>
    <trkpt lat="41.500280" lon="-106.812410"/>
    <trkpt lat="41.503610" lon="-106.810570"/>
    <trkpt lat="41.506930" lon="-106.808710"/>
    <trkpt lat="41.510240" lon="-106.806830"/>
    <trkpt lat="41.513680" lon="-106.805410"/>
    <trkpt lat="41.517200" lon="-106.804420"/>
    <trkpt lat="41.520740" lon="-106.803540"/>
    <trkpt lat="41.524270" lon="-106.802540"/>
    <trkpt lat="41.527820" lon="-106.801820"/>
    <trkpt lat="41.531420" lon="-106.801570"/>
    <trkpt lat="41.535010" lon="-106.801200"/>
    <trkpt lat="41.538600" lon="-106.800850"/>
    <trkpt lat="41.542200" lon="-106.800640"/>
    <trkpt lat="41.545800" lon="-106.800740"/>
    <trkpt lat="41.549390" lon="-106.800370"/>
    <trkpt lat="41.552960" lon="-106.799840"/>
    <trkpt lat="41.556560" lon="-106.799570"/>
    <trkpt lat="41.560140" lon="-106.799110"/>
    <trkpt lat="41.563690" lon="-106.798320"/>
    <trkpt lat="41.567270" lon="-106.797770"/>
    <trkpt lat="41.570870" lon="-106.797650"/>
    <trkpt lat="41.574470" lon="-106.797580"/>
    <trkpt lat="41.578070" lon="-106.797450"/>
    <trkpt lat="41.581660" lon="-106.797650"/>
    <trkpt lat="41.585260" lon="-106.797800"/>
    <trkpt lat="41.588860" lon="-106.798060"/>
    <trkpt lat="41.592460" lon="-106.798060"/>
    <trkpt lat="41.596040" lon="-106.797630"/>
    <trkpt lat="41.599640" lon="-106.797610"/>
    <trkpt lat="41.603230" lon="-106.797300"/>
    <trkpt lat="41.606830" lon="-106.797360"/>
    <trkpt lat="41.610430" lon="-106.797240"/>
    <trkpt lat="41.614010" lon="-106.796640"/>
    <trkpt lat="41.617580" lon="-106.796120"/>
    <trkpt lat="41.621170" lon="-106.795680"/>
    <trkpt lat="41.624770" lon="-106.795520"/>
    <trkpt lat="41.628370" lon="-106.795580"/>
    <trkpt lat="41.631970" lon="-106.795580"/>
    <trkpt lat="41.635560" lon="-106.795790"/>
    <trkpt lat="41.639150" lon="-106.796180"/>
    <trkpt lat="41.642740" lon="-106.796510"/>
    <trkpt lat="41.646340" lon="-106.796480"/>
    <trkpt lat="41.649940" lon="-106.796480"/>
    <trkpt lat="41.653540" lon="-106.796780"/>
    <trkpt lat="41.657140" lon="-106.796830"/>
    <trkpt lat="41.660720" lon="-106.797270"/>
    <trkpt lat="41.664300" lon="-106.797800"/>
    <trkpt lat="41.667900" lon="-106.798010"/>
    <trkpt lat="41.671470" lon="-106.798520"/>
    <trkpt lat="41.675050" lon="-106.799070"/>
    <trkpt lat="41.678650" lon="-106.799150"/>
    <trkpt lat="41.682240" lon="-106.799570"/>
    <trkpt lat="41.685780" lon="-106.800440"/>
    <trkpt lat="41.689370" lon="-106.800820"/>
    <trkpt lat="41.692950" lon="-106.801300"/>
    <trkpt lat="41.696520" lon="-106.801920"/>
    <trkpt lat="41.700100" lon="-106.802370"/>
    <trkpt lat="41.703670" lon="-106.803020"/>
    <trkpt lat="41.707260" lon="-106.803410"/>
    <trkpt lat="41.710830" lon="-106.804010"/>
    <trkpt lat="41.714430" lon="-106.804200"/>
    <trkpt lat="41.718030" lon="-106.804070"/>
    <trkpt lat="41.721620" lon="-106.804350"/>
    <trkpt lat="41.725210" lon="-106.804640"/>
    <trkpt lat="41.728810" lon="-106.804850"/>
    <trkpt lat="41.732410" lon="-106.804850"/>
    <trkpt lat="41.736010" lon="-106.804900"/>
    <trkpt lat="41.739610" lon="-106.804970"/>
    <trkpt lat="41.743210" lon="-106.804910"/>
    <trkpt lat="41.746810" lon="-106.804700"/>
    <trkpt lat="41.750400" lon="-106.804470"/>
    <trkpt lat="41.753980" lon="-106.803940"/>
    <trkpt lat="41.757580" lon="-106.803700"/>
    <trkpt lat="41.761180" lon="-106.803680"/>
    <trkpt lat="41.764770" lon="-106.804040"/>
    <trkpt lat="41.768360" lon="-106.804350"/>
    <trkpt lat="41.771960" lon="-106.804440"/>
    <trkpt lat="41.775560" lon="-106.804460"/>
    <trkpt lat="41.779160" lon="-106.804480"/>
    <trkpt lat="41.782760" lon="-106.804280"/>
    <trkpt lat="41.786360" lon="-106.804320"/>
    <trkpt lat="41.789950" lon="-106.804230"/>
    <trkpt lat="41.793550" lon="-106.804270"/>
    <trkpt lat="41.797130" lon="-106.804870"/>
    <trkpt lat="41.800690" lon="-106.805550"/>
    <trkpt lat="41.804280" lon="-106.805970"/>
    <trkpt lat="41.807830" lon="-106.806770"/>
    <trkpt lat="41.811410" lon="-106.807260"/>
    <trkpt lat="41.814970" lon="-106.807940"/>
    <trkpt lat="41.818560" lon="-106.808350"/>
    <trkpt lat="41.822160" lon="-106.808590"/>
    <trkpt lat="41.825730" lon="-106.809110"/>
    <trkpt lat="41.829310" lon="-106.809690"/>
    <trkpt lat="41.832870" lon="-106.810370"/>
    <trkpt lat="41.836420" lon="-106.811180"/>
    <trkpt lat="41.839960" lon="-106.812060"/>
    <trkpt lat="41.843430" lon="-106.813330"/>
    <trkpt lat="41.846800" lon="-106.815060"/>
    <trkpt lat="41.850230" lon="-106.816500"/>
    <trkpt lat="41.853740" lon="-106.817590"/>
    <trkpt lat="41.857250" lon="-106.818670"/>
    <trkpt lat="41.860800" lon="-106.819460"/>
    <trkpt lat="41.864370" lon="-106.820060"/>
    <trkpt lat="41.867970" lon="-106.820320"/>
    <trkpt lat="41.871560" lon="-106.820540"/>
    <trkpt lat="41.875160" lon="-106.820750"/>
    <trkpt lat="41.878740" lon="-106.821210"/>
    <trkpt lat="41.882340" lon="-106.821290"/>
    <trkpt lat="41.885940" lon="-106.821460"/>
    <trkpt lat="41.889540" lon="-106.821520"/>
    <trkpt lat="41.893140" lon="-106.821640"/>
    <trkpt lat="41.896740" lon="-106.821810"/>
    <trkpt lat="41.900340" lon="-106.821850"/>
    <trkpt lat="41.903940" lon="-106.821800"/>
    <trkpt lat="41.907540" lon="-106.821640"/>
    <trkpt lat="41.911120" lon="-106.821180"/>
    <trkpt lat="41.914690" lon="-106.820540"/>
    <trkpt lat="41.918240" lon="-106.819800"/>
    <trkpt lat="41.921810" lon="-106.819170"/>
    <trkpt lat="41.925410" lon="-106.818940"/>
    <trkpt lat="41.929000" lon="-106.819310"/>
    <trkpt lat="41.932570" lon="-106.819960"/>
    <trkpt lat="41.936160" lon="-106.820260"/>
    <trkpt lat="41.939720" lon="-106.820990"/>
    <trkpt lat="41.943240" lon="-106.821990"/>
  </trkseg></trk>
</gpx>
