<?xml version="1.0" encoding="UTF-8"?>
<gpx version="1.1" creator="trail-water-explorer optimizer" xmlns="http://www.topografix.com/GPX/1/1">
  <metadata><name>Water waypoints (template data)</name></metadata>
  <wpt lat="36.9642986" lon="-107.4087326"><ele>2102.8</ele><name>4 Sample Stream</name><desc>Route mi 4.4 | water 95% low-end, flowing 82% typical | ~May 7 | 6,899 ft | next water 16.5 mi</desc><sym>Water</sym><type>Water</type></wpt>
  <wpt lat="37.1898884" lon="-107.3301565"><ele>2261.9</ele><name>~21 Sample Cach</name><desc>Route mi 20.9 | water 80% low-end, flowing 50% typical | ~May 13 | 7,421 ft | next water 5.4 mi</desc><sym>Water</sym><type>Water</type></wpt>
  <wpt lat="37.2660818" lon="-107.2888509"><ele>2250.9</ele><name>26 Sample Troug</name><desc>Route mi 26.3 | water 87% low-end, flowing 68% typical | ~May 15 | 7,385 ft | next water 3.6 mi | 0.30 mi off route</desc><sym>Water</sym><type>Water</type></wpt>
  <wpt lat="37.3084047" lon="-107.2653197"><ele>2546.0</ele><name>30 Sample Sprin</name><desc>Route mi 29.9 | water 89% low-end, flowing 69% typical | ~May 16 | 8,353 ft | next water 7.0 mi</desc><sym>Water</sym><type>Water</type></wpt>
  <wpt lat="37.4025871" lon="-107.2218615"><ele>2493.0</ele><name>37 Sample Creek</name><desc>Route mi 36.8 | water 93% low-end, flowing 82% typical | ~May 19 | 8,179 ft | next water 9.6 mi</desc><sym>Water</sym><type>Water</type></wpt>
  <wpt lat="37.5151817" lon="-107.1261674"><ele>2869.1</ele><name>46 Sample Strea</name><desc>Route mi 46.4 | water 91% low-end, flowing 74% typical | ~May 22 | 9,413 ft | next water 4.1 mi</desc><sym>Water</sym><type>Water</type></wpt>
  <wpt lat="37.5672976" lon="-107.0860955"><ele>2674.9</ele><name>51 Sample Creek</name><desc>Route mi 50.5 | water 88% low-end, flowing 63% typical | ~May 24 | 8,776 ft | next water 9.5 mi</desc><sym>Water</sym><type>Water</type></wpt>
  <wpt lat="37.6948000" lon="-107.0266000"><ele>2666.1</ele><name>60 Sample Tank</name><desc>Route mi 60.0 | water 89% low-end, flowing 70% typical | ~May 28 | 8,747 ft | next water 4.1 mi</desc><sym>Water</sym><type>Water</type></wpt>
  <wpt lat="37.7510980" lon="-106.9984737"><ele>2703.9</ele><name>64 Sample Strea</name><desc>Route mi 64.2 | water 94% low-end, flowing 83% typical | ~May 29 | 8,871 ft | next water 2.0 mi</desc><sym>Water</sym><type>Water</type></wpt>
  <wpt lat="37.7797058" lon="-106.9943409"><ele>2948.9</ele><name>?66 Sample Tank</name><desc>Route mi 66.2 | water 54% low-end, flowing 25% typical | ~May 30 | 9,675 ft | next water 5.6 mi</desc><sym>Water</sym><type>Water</type></wpt>
  <wpt lat="37.8580031" lon="-106.9812311"><ele>2649.0</ele><name>~72 Sample Cach</name><desc>Route mi 71.7 | water 71% low-end, flowing 43% typical | ~Jun 1 | 8,691 ft | next water 11.9 mi</desc><sym>Water</sym><type>Water</type></wpt>
  <wpt lat="38.0279956" lon="-107.0117239"><ele>2737.1</ele><name>?84 Sample Pond</name><desc>Route mi 83.7 | water 22% low-end, flowing 42% typical | ~Jun 5 | 8,980 ft | next water 7.3 mi | varies a lot year to year</desc><sym>Water</sym><type>Water</type></wpt>
  <wpt lat="38.1324061" lon="-107.0446636"><ele>2648.1</ele><name>~91 Sample Wind</name><desc>Route mi 91.0 | water 64% low-end, flowing 38% typical | ~Jun 8 | 8,688 ft | next water 7.2 mi</desc><sym>Water</sym><type>Water</type></wpt>
  <wpt lat="38.2257118" lon="-107.1035667"><ele>2442.1</ele><name>98 Sample River</name><desc>Route mi 98.2 | water 97% low-end, flowing 91% typical | ~Jun 11 | 8,012 ft | next water 2.6 mi</desc><sym>Water</sym><type>Water</type></wpt>
  <wpt lat="38.2582058" lon="-107.1229792"><ele>2446.9</ele><name>~101 Sample Win</name><desc>Route mi 100.8 | water 77% low-end, flowing 50% typical | ~Jun 12 | 8,028 ft | next water 10.7 mi</desc><sym>Water</sym><type>Water</type></wpt>
  <wpt lat="38.4038947" lon="-107.1877161"><ele>2179.9</ele><name>112 Sample Cree</name><desc>Route mi 111.5 | water 86% low-end, flowing 73% typical | ~Jun 16 | 7,152 ft | next water 3.2 mi</desc><sym>Water</sym><type>Water</type></wpt>
  <wpt lat="38.4464040" lon="-107.2127874"><ele>1446.0</ele><name>115 Sample Rive</name><desc>Route mi 114.8 | water 98% low-end, flowing 92% typical | ~Jun 17 | 4,744 ft | next water 4.0 mi</desc><sym>Water</sym><type>Water</type></wpt>
  <wpt lat="38.5012796" lon="-107.2460418"><ele>1168.9</ele><name>119 Sample Stre</name><desc>Route mi 118.8 | water 94% low-end, flowing 84% typical | ~Jun 19 | 3,835 ft | next water 17.0 mi</desc><sym>Water</sym><type>Water</type></wpt>
  <wpt lat="38.7314970" lon="-107.3351194"><ele>824.8</ele><name>~136 Sample Cac</name><desc>Route mi 135.8 | water 61% low-end, flowing 34% typical | ~Jun 25 | 2,706 ft | next water 0.5 mi</desc><sym>Water</sym><type>Water</type></wpt>
  <wpt lat="38.7387006" lon="-107.3362707"><ele>1107.9</ele><name>~136 Sample Win</name><desc>Route mi 136.2 | water 69% low-end, flowing 39% typical | ~Jun 25 | 3,635 ft | next water 8.3 mi</desc><sym>Water</sym><type>Water</type></wpt>
  <wpt lat="38.8567020" lon="-107.3263499"><ele>885.7</ele><name>145 Sample Lake</name><desc>Route mi 144.5 | water 88% low-end, flowing 73% typical | ~Jun 28 | 2,906 ft | next water 2.3 mi</desc><sym>Water</sym><type>Water</type></wpt>
  <wpt lat="38.8889986" lon="-107.3280283"><ele>1086.0</ele><name>~147 Sample Spr</name><desc>Route mi 146.8 | water 84% low-end, flowing 62% typical | ~Jun 29 | 3,563 ft | next water 4.7 mi</desc><sym>Water</sym><type>Water</type></wpt>
  <wpt lat="38.9603004" lon="-107.3347114"><ele>1011.0</ele><name>152 Sample Stre</name><desc>Route mi 151.5 | water 91% low-end, flowing 79% typical | ~Jul 1 | 3,317 ft | next water 9.3 mi | 0.30 mi off route</desc><sym>Water</sym><type>Water</type></wpt>
  <wpt lat="39.0825974" lon="-107.2845753"><ele>1215.8</ele><name>161 Sample Lake</name><desc>Route mi 160.8 | water 94% low-end, flowing 79% typical | ~Jul 4 | 3,989 ft | next water 2.8 mi</desc><sym>Water</sym><type>Water</type></wpt>
  <wpt lat="39.1207105" lon="-107.2715297"><ele>1404.8</ele><name>~164 Sample Win</name><desc>Route mi 163.5 | water 74% low-end, flowing 42% typical | ~Jul 5 | 4,609 ft | next water 7.9 mi</desc><sym>Water</sym><type>Water</type></wpt>
  <wpt lat="39.2280231" lon="-107.2186656"><ele>1556.0</ele><name>171 Sample Rive</name><desc>Route mi 171.4 | water 98% low-end, flowing 92% typical | ~Jul 8 | 5,105 ft | next water 7.1 mi</desc><sym>Water</sym><type>Water</type></wpt>
  <wpt lat="39.3190969" lon="-107.1550957"><ele>1500.8</ele><name>178 Sample Tank</name><desc>Route mi 178.5 | water 86% low-end, flowing 61% typical | ~Jul 11 | 4,924 ft | next water 4.1 mi</desc><sym>Water</sym><type>Water</type></wpt>
  <wpt lat="39.3631890" lon="-107.1073889"><ele>1655.1</ele><name>~183 Sample Win</name><desc>Route mi 182.6 | water 79% low-end, flowing 51% typical | ~Jul 13 | 5,430 ft | next water 2.2 mi</desc><sym>Water</sym><type>Water</type></wpt>
  <wpt lat="39.3866963" lon="-107.0791934"><ele>2137.0</ele><name>185 Sample Lake</name><desc>Route mi 184.8 | water 93% low-end, flowing 74% typical | ~Jul 13 | 7,011 ft | next water 9.3 mi</desc><sym>Water</sym><type>Water</type></wpt>
  <wpt lat="39.4966923" lon="-106.9846428"><ele>2282.0</ele><name>?194 Sample Pon</name><desc>Route mi 194.1 | water 60% low-end, flowing 36% typical | ~Jul 17 | 7,487 ft | next water 5.1 mi</desc><sym>Water</sym><type>Water</type></wpt>
  <wpt lat="39.5667000" lon="-106.9493000"><ele>2453.9</ele><name>199 Sample Lake</name><desc>Route mi 199.1 | water 96% low-end, flowing 85% typical | ~Jul 19 | 8,051 ft | next water 5.9 mi</desc><sym>Water</sym><type>Water</type></wpt>
  <wpt lat="39.6408965" lon="-106.9025796"><ele>2684.1</ele><name>?205 Sample Tan</name><desc>Route mi 205.0 | water 53% low-end, flowing 32% typical | ~Jul 21 | 8,806 ft | next water 12.3 mi</desc><sym>Water</sym><type>Water</type></wpt>
  <wpt lat="39.8205069" lon="-106.8853004"><ele>2723.1</ele><name>~217 Sample Spr</name><desc>Route mi 217.3 | water 68% low-end, flowing 45% typical | ~Jul 26 | 8,934 ft | next water 12.9 mi | 0.30 mi off route</desc><sym>Water</sym><type>Water</type></wpt>
  <wpt lat="39.9981929" lon="-106.9428435"><ele>2764.8</ele><name>230 Sample Stre</name><desc>Route mi 230.3 | water 94% low-end, flowing 78% typical | ~Jul 30 | 9,071 ft | next water 5.5 mi</desc><sym>Water</sym><type>Water</type></wpt>
  <wpt lat="40.0738947" lon="-106.9722145"><ele>2785.9</ele><name>236 Sample Spri</name><desc>Route mi 235.7 | water 86% low-end, flowing 60% typical | ~Aug 2 | 9,140 ft | next water 24.3 mi</desc><sym>Water</sym><type>Water</type></wpt>
  <wpt lat="40.3936085" lon="-107.1504508"><ele>2760.9</ele><name>260 Sample Cree</name><desc>Route mi 260.0 | water 95% low-end, flowing 80% typical | ~Aug 11 | 9,058 ft | next water 7.5 mi</desc><sym>Water</sym><type>Water</type></wpt>
  <wpt lat="40.4953963" lon="-107.1941358"><ele>2872.1</ele><name>?268 Sample Win</name><desc>Route mi 267.5 | water 33% low-end, flowing 11% typical | ~Aug 13 | 9,423 ft | next water 9.0 mi</desc><sym>Water</sym><type>Water</type></wpt>
  <wpt lat="40.6279990" lon="-107.1998820"><ele>2688.0</ele><name>?277 Sample Pon</name><desc>Route mi 276.5 | water 40% low-end, flowing 13% typical | ~Aug 17 | 8,819 ft | next water 5.8 mi</desc><sym>Water</sym><type>Water</type></wpt>
  <wpt lat="40.7105980" lon="-107.1996759"><ele>2408.8</ele><name>282 Sample Rive</name><desc>Route mi 282.3 | water 97% low-end, flowing 90% typical | ~Aug 19 | 7,903 ft | next water 7.7 mi</desc><sym>Water</sym><type>Water</type></wpt>
  <wpt lat="40.8226046" lon="-107.1854382"><ele>2208.9</ele><name>290 Sample Rive</name><desc>Route mi 289.9 | water 97% low-end, flowing 89% typical | ~Aug 22 | 7,247 ft | next water 8.5 mi</desc><sym>Water</sym><type>Water</type></wpt>
  <wpt lat="40.9421993" lon="-107.1711057"><ele>2009.9</ele><name>?298 Sample Tan</name><desc>Route mi 298.4 | water 35% low-end, flowing 12% typical | ~Aug 25 | 6,594 ft | next water 0.2 mi</desc><sym>Water</sym><type>Water</type></wpt>
  <wpt lat="40.9421993" lon="-107.1711057"><ele>2093.1</ele><name>?299 Sample Tro</name><desc>Route mi 298.6 | water 41% low-end, flowing 13% typical | ~Aug 25 | 6,867 ft | next water 9.1 mi</desc><sym>Water</sym><type>Water</type></wpt>
  <wpt lat="41.0708032" lon="-107.1318100"><ele>2019.9</ele><name>~308 Sample Cre</name><desc>Route mi 307.7 | water 64% low-end, flowing 30% typical | ~Aug 29 | 6,627 ft | next water 1.6 mi</desc><sym>Water</sym><type>Water</type></wpt>
  <wpt lat="41.0914869" lon="-107.1190716"><ele>1606.9</ele><name>?309 Sample Str</name><desc>Route mi 309.3 | water 35% low-end, flowing 45% typical | ~Aug 29 | 5,272 ft | next water 3.6 mi | varies a lot year to year</desc><sym>Water</sym><type>Water</type></wpt>
  <wpt lat="41.1374154" lon="-107.0850336"><ele>1709.9</ele><name>313 Sample Rive</name><desc>Route mi 312.9 | water 98% low-end, flowing 90% typical | ~Aug 30 | 5,610 ft | next water 9.6 mi</desc><sym>Water</sym><type>Water</type></wpt>
  <wpt lat="41.2571830" lon="-106.9904633"><ele>1481.9</ele><name>~323 Sample Tro</name><desc>Route mi 322.5 | water 66% low-end, flowing 33% typical | ~Sep 3 | 4,862 ft | next water 12.0 mi</desc><sym>Water</sym><type>Water</type></wpt>
  <wpt lat="41.3999927" lon="-106.8650735"><ele>1422.8</ele><name>?334 Sample Tro</name><desc>Route mi 334.5 | water 43% low-end, flowing 14% typical | ~Sep 8 | 4,668 ft | next water 8.2 mi</desc><sym>Water</sym><type>Water</type></wpt>
  <wpt lat="41.5102144" lon="-106.8068446"><ele>1371.9</ele><name>343 Sample Spri</name><desc>Route mi 342.7 | water 86% low-end, flowing 56% typical | ~Sep 11 | 4,501 ft | next water 5.1 mi</desc><sym>Water</sym><type>Water</type></wpt>
  <wpt lat="41.5817011" lon="-106.7976517"><ele>988.8</ele><name>348 Sample Rive</name><desc>Route mi 347.8 | water 95% low-end, flowing 80% typical | ~Sep 13 | 3,244 ft | next water 3.3 mi</desc><sym>Water</sym><type>Water</type></wpt>
  <wpt lat="41.6284000" lon="-106.7955800"><ele>1118.9</ele><name>351 Sample Lake</name><desc>Route mi 351.1 | water 93% low-end, flowing 75% typical | ~Sep 14 | 3,671 ft | next water 5.4 mi</desc><sym>Water</sym><type>Water</type></wpt>
  <wpt lat="41.7072984" lon="-106.8034165"><ele>1331.1</ele><name>?356 Sample Spr</name><desc>Route mi 356.4 | water 28% low-end, flowing 51% typical | ~Sep 16 | 4,367 ft | next water 1.0 mi | varies a lot year to year</desc><sym>Water</sym><type>Water</type></wpt>
  <wpt lat="41.7216023" lon="-106.8043486"><ele>1189.9</ele><name>~357 Sample Str</name><desc>Route mi 357.4 | water 68% low-end, flowing 32% typical | ~Sep 16 | 3,904 ft | next water 4.2 mi</desc><sym>Water</sym><type>Water</type></wpt>
  <wpt lat="41.7828001" lon="-106.8042804"><ele>1652.0</ele><name>~362 Sample Tan</name><desc>Route mi 361.6 | water 68% low-end, flowing 31% typical | ~Sep 18 | 5,420 ft | next water 3.9 mi</desc><sym>Water</sym><type>Water</type></wpt>
  <wpt lat="41.8400049" lon="-106.8120764"><ele>1798.9</ele><name>?366 Sample Tro</name><desc>Route mi 365.6 | water 30% low-end, flowing 8% typical | ~Sep 19 | 5,902 ft | next water 1.8 mi</desc><sym>Water</sym><type>Water</type></wpt>
  <wpt lat="41.8653460" lon="-106.8201305"><ele>1581.0</ele><name>367 Sample Lake</name><desc>Route mi 367.4 | water 88% low-end, flowing 60% typical | ~Sep 20 | 5,187 ft | next water 5.5 mi</desc><sym>Water</sym><type>Water</type></wpt>
</gpx>
